{"type":"FeatureCollection","features":[{"_id":"mississippi","type":"Feature","properties":{"name":"Mississippi","abbreviation":"MS","capital":"Jackson","city":"Jackson","population":2991207,"area":125438,"waterarea":3908,"landarea":121530,"houseseats":4,"statehood":"1817-12-10","group":"US States"},"geometry":{"coordinates":[[[[-89.095623,30.231767],[-89.077259,30.23168],[-89.067128,30.250199],[-89.063989,30.246299],[-89.065097,30.239929],[-89.073538,30.223318],[-89.091469,30.202305],[-89.118222,30.223343],[-89.156738,30.230699],[-89.095623,30.231767]]],[[[-88.90037,30.224576],[-88.909752,30.220405],[-88.945498,30.209646],[-88.974672,30.207391],[-88.980239,30.207962],[-88.984249,30.21032],[-88.982219,30.211627],[-88.976811,30.210987],[-88.947872,30.214179],[-88.920511,30.220578],[-88.908885,30.225437],[-88.889797,30.239665],[-88.877824,30.242442],[-88.87366,30.241748],[-88.90037,30.224576]]],[[[-88.506999,30.214348],[-88.500011,30.214044],[-88.465713,30.20254],[-88.453444,30.201236],[-88.442654,30.202314],[-88.430332,30.208548],[-88.401466,30.210172],[-88.404581,30.206162],[-88.428301,30.198511],[-88.453654,30.196584],[-88.493523,30.205945],[-88.502752,30.210506],[-88.506999,30.214348]]],[[[-88.710719,30.250799],[-88.656804,30.233956],[-88.573044,30.22264],[-88.568056,30.222732],[-88.562067,30.227476],[-88.565576,30.222847],[-88.569138,30.221357],[-88.587424,30.219154],[-88.633743,30.226342],[-88.665857,30.228847],[-88.71183,30.242662],[-88.740647,30.238665],[-88.752782,30.238803],[-88.764022,30.241488],[-88.771991,30.245523],[-88.73255,30.246322],[-88.718104,30.252931],[-88.710719,30.250799]]],[[[-89.198288,34.994484],[-89.139136,34.994307],[-89.138997,34.99433],[-89.017128,34.994649],[-88.823049,34.995157],[-88.786612,34.995252],[-88.469877,34.996033],[-88.469801,34.996052],[-88.380508,34.99561],[-88.363531,34.99559],[-88.258111,34.995463],[-88.253825,34.995553],[-88.200064,34.995634],[-88.125038,34.902227],[-88.097888,34.892202],[-88.118407,34.724292],[-88.138719,34.589215],[-88.139246,34.587795],[-88.139988,34.581703],[-88.155305,34.463087],[-88.165634,34.383102],[-88.16591,34.380926],[-88.173632,34.321054],[-88.175867,34.302171],[-88.176889,34.293858],[-88.203597,34.08653],[-88.207229,34.058333],[-88.226428,33.912875],[-88.226517,33.911665],[-88.226517,33.911551],[-88.24839,33.744908],[-88.254445,33.698779],[-88.254622,33.69578],[-88.256131,33.68286],[-88.256343,33.682053],[-88.267005,33.594229],[-88.267148,33.591989],[-88.26816,33.58504],[-88.269076,33.576929],[-88.269532,33.572894],[-88.27005,33.570819],[-88.274619,33.534008],[-88.276805,33.516463],[-88.277421,33.512436],[-88.291127,33.399061],[-88.304514,33.28832],[-88.340432,32.991199],[-88.347692,32.929059],[-88.382985,32.626954],[-88.383039,32.626679],[-88.388739,32.578116],[-88.403789,32.449885],[-88.403789,32.44977],[-88.421453,32.30868],[-88.431707,32.227662],[-88.43865,32.172806],[-88.43871,32.172078],[-88.454959,32.040576],[-88.455039,32.039719],[-88.46866,31.933173],[-88.468879,31.930262],[-88.46996,31.893759],[-88.471214,31.851385],[-88.471106,31.850949],[-88.464428,31.697952],[-88.464425,31.697881],[-88.459722,31.624002],[-88.459478,31.621652],[-88.449446,31.435837],[-88.44866,31.421277],[-88.448686,31.420888],[-88.445209,31.355969],[-88.445182,31.355855],[-88.438211,31.231252],[-88.438104,31.23006],[-88.432007,31.114298],[-88.425807,31.001123],[-88.425729,31.000183],[-88.425635,30.998301],[-88.412462,30.735598],[-88.41227,30.731771],[-88.412209,30.730395],[-88.41155,30.712956],[-88.411339,30.706334],[-88.409571,30.668731],[-88.40807,30.63697],[-88.407462,30.631653],[-88.407484,30.622736],[-88.404013,30.54506],[-88.403931,30.543359],[-88.403547,30.5331],[-88.402283,30.510852],[-88.395023,30.369425],[-88.397236,30.367689],[-88.399062,30.360744],[-88.397082,30.354785],[-88.39415,30.352493],[-88.39398,30.349307],[-88.401181,30.344382],[-88.409927,30.342115],[-88.418811,30.353911],[-88.433891,30.354652],[-88.446495,30.347753],[-88.446625,30.337671],[-88.45381,30.329626],[-88.471875,30.32002],[-88.480117,30.318345],[-88.504802,30.321472],[-88.506226,30.322393],[-88.506334,30.327398],[-88.522494,30.340092],[-88.536214,30.343299],[-88.579483,30.34419],[-88.596349,30.358365],[-88.599249,30.358933],[-88.601762,30.355876],[-88.613745,30.353108],[-88.624523,30.358713],[-88.66382,30.362099],[-88.679575,30.35571],[-88.692164,30.347302],[-88.700587,30.343689],[-88.714077,30.342186],[-88.728893,30.342671],[-88.746945,30.347622],[-88.771742,30.365403],[-88.811615,30.384907],[-88.812576,30.38768],[-88.810127,30.391298],[-88.810227,30.394698],[-88.823724,30.402376],[-88.841328,30.409598],[-88.845609,30.405266],[-88.857828,30.392898],[-88.851442,30.375355],[-88.880526,30.3866],[-88.883789,30.389172],[-88.884829,30.391998],[-88.89393,30.393398],[-88.922031,30.393798],[-88.971233,30.390798],[-89.016334,30.383898],[-89.083237,30.368097],[-89.18684,30.331197],[-89.220442,30.322497],[-89.271833,30.305491],[-89.285744,30.303097],[-89.291444,30.303296],[-89.294444,30.307596],[-89.291844,30.328096],[-89.287844,30.333196],[-89.281564,30.33198],[-89.279818,30.34979],[-89.292499,30.365635],[-89.315067,30.375408],[-89.335942,30.374016],[-89.340947,30.372896],[-89.349447,30.370995],[-89.353248,30.368795],[-89.363848,30.357395],[-89.366116,30.352169],[-89.345934,30.343573],[-89.338847,30.342995],[-89.332546,30.337895],[-89.322345,30.319296],[-89.322545,30.314896],[-89.329946,30.302896],[-89.344746,30.293196],[-89.358546,30.288896],[-89.365747,30.284896],[-89.379547,30.270396],[-89.383747,30.267796],[-89.419348,30.25432],[-89.424624,30.245391],[-89.424493,30.239092],[-89.430428,30.223218],[-89.447465,30.205098],[-89.44791,30.185352],[-89.461275,30.174745],[-89.463595,30.173943],[-89.469792,30.176278],[-89.475824,30.191561],[-89.480214,30.193751],[-89.490099,30.187677],[-89.503231,30.183051],[-89.522814,30.183076],[-89.524504,30.180753],[-89.572654,30.180897],[-89.580754,30.186197],[-89.607655,30.217096],[-89.64344,30.287682],[-89.643575,30.293099],[-89.640694,30.301313],[-89.629877,30.321017],[-89.629941,30.339449],[-89.68341,30.451793],[-89.69058,30.458773],[-89.724614,30.491902],[-89.732577,30.492502],[-89.76057,30.515761],[-89.806843,30.572039],[-89.823384,30.608535],[-89.842585,30.666005],[-89.842596,30.666038],[-89.826175,30.736594],[-89.789863,30.851527],[-89.77341,30.897693],[-89.770931,30.899432],[-89.756543,30.900431],[-89.744789,30.918933],[-89.728382,30.971141],[-89.728148,31.0023],[-89.728147,31.002431],[-89.732504,31.004831],[-89.752642,31.001853],[-89.816429,31.002084],[-89.824617,31.00206],[-89.835542,31.002059],[-89.835908,31.002059],[-89.856862,31.002075],[-89.892708,31.001759],[-89.897516,31.001913],[-89.923119,31.001446],[-89.927161,31.001437],[-89.972802,31.001392],[-89.97543,31.001692],[-90.005332,31.001364],[-90.022185,31.001302],[-90.029574,31.00119],[-90.050706,31.001215],[-90.128406,31.001047],[-90.131395,31.000924],[-90.164278,31.001025],[-90.164676,31.00098],[-90.259555,31.000657],[-90.346007,31.000363],[-90.34723,31.000359],[-90.347241,31.000359],[-90.369371,31.000335],[-90.422117,30.99981],[-90.426849,30.999776],[-90.437351,30.99973],[-90.441725,30.999729],[-90.442479,30.999722],[-90.474094,30.999798],[-90.475928,30.99974],[-90.477284,30.999717],[-90.485876,30.99974],[-90.486749,30.999693],[-90.547615,30.999723],[-90.567195,30.999733],[-90.583518,30.999698],[-90.584448,30.999698],[-90.587373,30.999604],[-90.588676,30.99965],[-90.648721,30.999486],[-90.651193,30.99951],[-90.734473,30.999214],[-90.734552,30.999222],[-90.758775,30.999583],[-90.769333,30.999374],[-90.775981,30.999491],[-90.779858,30.999457],[-90.783745,30.999447],[-90.825829,30.99936],[-90.826027,30.99936],[-91.060217,30.998935],[-91.06827,30.99892],[-91.080814,30.998909],[-91.108114,30.998857],[-91.108291,30.99888],[-91.17614,30.999144],[-91.176209,30.999144],[-91.224068,30.999183],[-91.224839,30.999183],[-91.423621,30.998984],[-91.425749,30.999007],[-91.538727,30.999388],[-91.625118,30.999167],[-91.636942,30.999416],[-91.58467,31.020185],[-91.571695,31.029782],[-91.562468,31.043213],[-91.559907,31.054119],[-91.561283,31.060906],[-91.56415,31.06683],[-91.577373,31.078179],[-91.604197,31.154545],[-91.599965,31.192318],[-91.59849,31.205485],[-91.574493,31.261289],[-91.547588,31.264444],[-91.522397,31.273423],[-91.515614,31.27821],[-91.508858,31.291644],[-91.51982,31.311228],[-91.531201,31.326625],[-91.539904,31.337336],[-91.541242,31.35675],[-91.525386,31.378904],[-91.513795,31.386875],[-91.505093,31.400933],[-91.500406,31.419008],[-91.505301,31.432945],[-91.510356,31.438928],[-91.51513,31.449206],[-91.52292,31.519841],[-91.51581,31.530894],[-91.511217,31.532612],[-91.479718,31.530366],[-91.450017,31.539666],[-91.437616,31.546166],[-91.422691,31.55439],[-91.416683,31.561599],[-91.415482,31.567006],[-91.425094,31.57782],[-91.437711,31.580824],[-91.44862,31.583032],[-91.458679,31.583226],[-91.470754,31.58563],[-91.477362,31.592239],[-91.477963,31.598247],[-91.477963,31.604855],[-91.477963,31.610863],[-91.474959,31.621677],[-91.464746,31.628886],[-91.45273,31.63129],[-91.441315,31.63129],[-91.42209,31.63129],[-91.404668,31.637898],[-91.398059,31.655922],[-91.400115,31.688164],[-91.397915,31.709364],[-91.379935,31.733013],[-91.369375,31.746903],[-91.365084,31.752743],[-91.365614,31.760763],[-91.363714,31.780363],[-91.359514,31.799362],[-91.345714,31.842861],[-91.338414,31.851261],[-91.326914,31.854961],[-91.293413,31.86016],[-91.248144,31.869848],[-91.128009,31.985857],[-91.034707,32.101053],[-91.027946,32.112722],[-91.027535,32.113431],[-91.027125,32.120434],[-91.026931,32.123737],[-91.030152,32.129821],[-91.034447,32.134832],[-91.040531,32.137337],[-91.046615,32.138768],[-91.052342,32.137337],[-91.057487,32.135515],[-91.067004,32.132144],[-91.131403,32.126213],[-91.162822,32.132694],[-91.165452,32.13429],[-91.171702,32.14425],[-91.174552,32.154978],[-91.171046,32.176526],[-91.164171,32.196888],[-91.158026,32.201956],[-91.133587,32.213432],[-91.122602,32.216929],[-91.046507,32.241149],[-91.039007,32.242349],[-91.021507,32.236149],[-91.006306,32.22415],[-91.004557,32.215381],[-90.905173,32.315497],[-90.898588,32.329094],[-90.901511,32.337864],[-90.912363,32.339454],[-90.986672,32.35176],[-91.000106,32.357695],[-91.003506,32.362145],[-91.004506,32.368144],[-90.99408,32.403862],[-91.029606,32.433542],[-91.052907,32.438442],[-91.070207,32.445141],[-91.095308,32.458741],[-91.108808,32.47204],[-91.116008,32.48314],[-91.116708,32.500139],[-91.097878,32.544752],[-91.093741,32.549128],[-91.089436,32.553306],[-91.090611,32.562705],[-91.090771,32.563978],[-91.096774,32.576652],[-91.104111,32.584657],[-91.119854,32.584795],[-91.127912,32.586493],[-91.141148,32.597209],[-91.146204,32.604144],[-91.151318,32.615919],[-91.153821,32.631282],[-91.152081,32.641508],[-91.118258,32.674075],[-91.098762,32.685291],[-91.076061,32.693751],[-91.063946,32.702926],[-91.057043,32.712576],[-91.054481,32.722259],[-91.060766,32.727494],[-91.077176,32.732534],[-91.123152,32.742798],[-91.154461,32.742339],[-91.163389,32.747009],[-91.165328,32.751301],[-91.164397,32.785821],[-91.161669,32.812465],[-91.158336,32.822304],[-91.145002,32.84287],[-91.127886,32.855059],[-91.116091,32.855641],[-91.105631,32.858396],[-91.086683,32.873392],[-91.070602,32.888659],[-91.063809,32.903709],[-91.063974,32.924113],[-91.086802,32.976266],[-91.094265,32.984371],[-91.106581,32.988938],[-91.125107,32.984669],[-91.134414,32.980533],[-91.138585,32.971352],[-91.130947,32.963815],[-91.132115,32.923122],[-91.134041,32.917676],[-91.145076,32.905494],[-91.159975,32.899879],[-91.175405,32.899998],[-91.196785,32.906784],[-91.208263,32.915354],[-91.212837,32.922104],[-91.214027,32.93032],[-91.201842,32.961212],[-91.166073,33.004106],[-91.157662,33.011217],[-91.125656,33.038276],[-91.087589,33.145177],[-91.085984,33.221644],[-91.110561,33.24593],[-91.141216,33.298397],[-91.184427,33.419576],[-91.131885,33.430063],[-91.118495,33.449116],[-91.125109,33.472842],[-91.215671,33.529423],[-91.232295,33.552788],[-91.228287,33.559937],[-91.224121,33.567369],[-91.152148,33.582721],[-91.134043,33.594489],[-91.130445,33.606034],[-91.157484,33.626187],[-91.186519,33.645909],[-91.193093,33.656866],[-91.18871,33.669466],[-91.185971,33.679327],[-91.17611,33.684257],[-91.14817,33.679327],[-91.139953,33.683709],[-91.132831,33.688092],[-91.1279,33.695762],[-91.126805,33.707814],[-91.136118,33.728632],[-91.144682,33.750108],[-91.139869,33.777117],[-91.067511,33.840443],[-91.036821,33.914656],[-91.088164,33.960078],[-91.089119,33.972653],[-91.01889,34.003151],[-90.964708,34.007952],[-90.887413,34.032505],[-90.879163,34.065503],[-90.888396,34.087433],[-90.912057,34.095512],[-90.928793,34.107631],[-90.931969,34.120017],[-90.933116,34.124488],[-90.934564,34.130138],[-90.918405,34.154376],[-90.893013,34.155531],[-90.880317,34.169381],[-90.880894,34.180346],[-90.895898,34.191888],[-90.913212,34.210355],[-90.91148,34.223051],[-90.894744,34.229977],[-90.868775,34.228245],[-90.856367,34.238928],[-90.764143,34.363396],[-90.658542,34.375705],[-90.613944,34.390723],[-90.575336,34.415152],[-90.565809,34.4354],[-90.570133,34.524829],[-90.575786,34.641749],[-90.576543,34.657402],[-90.564033,34.665742],[-90.549855,34.662406],[-90.539013,34.65907],[-90.521499,34.66324],[-90.508989,34.679086],[-90.509823,34.689928],[-90.533175,34.707442],[-90.554859,34.727458],[-90.549855,34.76332],[-90.537345,34.78417],[-90.519831,34.782502],[-90.501325,34.769931],[-90.494811,34.76749],[-90.479799,34.769158],[-90.467289,34.782502],[-90.478131,34.832542],[-90.473961,34.852558],[-90.461451,34.856728],[-90.436431,34.85506],[-90.423879,34.834606],[-90.414864,34.831846],[-90.407964,34.832767],[-90.307384,34.846195],[-90.293918,34.860563],[-90.250095,34.90732],[-90.244476,34.937596],[-90.253969,34.954988],[-90.309297,34.995694],[-89.893402,34.994356],[-89.883365,34.994261],[-89.848488,34.994193],[-89.795187,34.994293],[-89.724324,34.994763],[-89.644282,34.995293],[-89.511153,34.994755],[-89.493739,34.994361],[-89.352679,34.99442],[-89.198288,34.994484]]]],"type":"MultiPolygon"}},{"_id":"alabama","type":"Feature","properties":{"name":"Alabama","abbreviation":"AL","capital":"Montgomery","city":"Birmingham","population":4833722,"area":135767,"waterarea":4597,"landarea":131170,"houseseats":7,"statehood":"1819-12-14","group":"US States"},"geometry":{"coordinates":[[[[-88.124658,30.28364],[-88.086812,30.259864],[-88.074854,30.249119],[-88.075856,30.246139],[-88.078786,30.245039],[-88.109432,30.242097],[-88.120151,30.246149],[-88.137083,30.249179],[-88.166569,30.249255],[-88.20854,30.244807],[-88.280571,30.230274],[-88.304773,30.228031],[-88.313323,30.230024],[-88.310025,30.233233],[-88.299705,30.231812],[-88.280781,30.233781],[-88.25837,30.239595],[-88.224615,30.245559],[-88.17335,30.252418],[-88.158303,30.252393],[-88.141143,30.255024],[-88.130631,30.262125],[-88.124722,30.273541],[-88.124658,30.28364]]],[[[-86.783628,34.991925],[-86.677616,34.99207],[-86.676726,34.99207],[-86.67436,34.992001],[-86.670853,34.992],[-86.65961,34.991792],[-86.641212,34.99174],[-86.600039,34.99124],[-86.588962,34.991197],[-86.571217,34.991011],[-86.555864,34.990971],[-86.528485,34.990677],[-86.467798,34.990692],[-86.433927,34.991085],[-86.397203,34.99166],[-86.318761,34.991147],[-86.311274,34.991098],[-85.863935,34.988379],[-85.828724,34.988165],[-85.824411,34.988142],[-85.605165,34.984678],[-85.595191,34.924331],[-85.595163,34.924171],[-85.583145,34.860371],[-85.552482,34.708321],[-85.552454,34.708138],[-85.541267,34.656783],[-85.541264,34.656701],[-85.534423,34.623789],[-85.527127,34.588684],[-85.51393,34.525192],[-85.513709,34.52417],[-85.513699,34.524133],[-85.512108,34.518252],[-85.508384,34.501212],[-85.502454,34.474527],[-85.502316,34.473954],[-85.462304,34.286365],[-85.458693,34.269437],[-85.458071,34.265736],[-85.455371,34.252854],[-85.455057,34.250689],[-85.421731,34.080821],[-85.398837,33.964129],[-85.386693,33.901697],[-85.361844,33.773951],[-85.360491,33.767958],[-85.337974,33.653111],[-85.322497,33.574167],[-85.314994,33.535898],[-85.314091,33.530218],[-85.313999,33.529807],[-85.304439,33.482884],[-85.293902,33.428079],[-85.236509,33.129562],[-85.232378,33.108077],[-85.223261,33.06258],[-85.221868,33.055538],[-85.184131,32.870525],[-85.123421,32.772248],[-85.13204,32.764211],[-85.136776,32.746512],[-85.137136,32.745168],[-85.114737,32.685634],[-85.10479,32.642542],[-85.082454,32.607022],[-85.080288,32.603577],[-85.079935,32.602889],[-85.069583,32.58393],[-85.044606,32.559499],[-85.022509,32.542923],[-85.0071,32.523868],[-85.001324,32.512973],[-85.001052,32.510477],[-85.00103,32.510157],[-85.000779,32.506548],[-84.998231,32.469842],[-84.983831,32.445643],[-84.979431,32.412244],[-84.987278,32.381623],[-84.987386,32.381201],[-85.008096,32.336677],[-85.007103,32.328362],[-85.001874,32.322015],[-84.93868,32.300708],[-84.916611,32.281177],[-84.909052,32.26354],[-84.92165,32.233306],[-84.923638,32.231539],[-84.964828,32.194952],[-84.995929,32.184852],[-85.047865,32.142033],[-85.056029,32.063055],[-85.050212,32.024196],[-85.062246,31.991857],[-85.07233,31.964758],[-85.08213,31.944658],[-85.10663,31.915159],[-85.132931,31.88826],[-85.141831,31.839861],[-85.141331,31.783163],[-85.138668,31.780425],[-85.130731,31.772263],[-85.12523,31.767063],[-85.124501,31.763081],[-85.11893,31.732664],[-85.12223,31.722764],[-85.12653,31.716764],[-85.12553,31.694965],[-85.087029,31.640966],[-85.065236,31.624351],[-85.059534,31.621717],[-85.057473,31.618624],[-85.041305,31.540987],[-85.046859,31.517451],[-85.068065,31.427586],[-85.087651,31.308677],[-85.101561,31.283362],[-85.111871,31.258388],[-85.107516,31.186451],[-85.100207,31.16549],[-85.092106,31.160293],[-85.083582,31.15963],[-85.076628,31.156927],[-85.035615,31.108192],[-85.029736,31.096163],[-85.022121,31.07548],[-84.999428,31.013843],[-85.002368,31.000682],[-85.024108,31.000681],[-85.027512,31.00067],[-85.030107,31.000653],[-85.031155,31.000647],[-85.052088,31.000585],[-85.054802,31.000585],[-85.057534,31.000585],[-85.145835,31.000695],[-85.152085,31.000888],[-85.152218,31.000834],[-85.154452,31.000835],[-85.488298,30.997041],[-85.497992,30.996931],[-85.498272,30.996928],[-86.035039,30.99332],[-86.052462,30.993247],[-86.056213,30.993133],[-86.162886,30.993682],[-86.168979,30.993706],[-86.175204,30.993798],[-86.180232,30.994005],[-86.187246,30.993992],[-86.289247,30.993798],[-86.304596,30.994029],[-86.364907,30.994455],[-86.36927,30.994477],[-86.374545,30.994474],[-86.388646,30.994181],[-86.388647,30.994181],[-86.391937,30.994172],[-86.404912,30.994049],[-86.454704,30.993791],[-86.458319,30.993998],[-86.512834,30.9937],[-86.519938,30.993245],[-86.563436,30.995223],[-86.567586,30.995109],[-86.664681,30.994534],[-86.678383,30.994537],[-86.688294,30.995029],[-86.725379,30.996872],[-86.727293,30.996882],[-86.728392,30.996739],[-86.785692,30.996977],[-86.785918,30.996978],[-86.830497,30.997401],[-86.831934,30.997378],[-86.872989,30.997631],[-86.888135,30.997577],[-87.027107,30.999255],[-87.036366,30.999348],[-87.039989,30.999594],[-87.053737,30.999131],[-87.064063,30.999191],[-87.068633,30.999143],[-87.162614,30.999055],[-87.163084,30.999051],[-87.25498,30.998285],[-87.255592,30.998216],[-87.257002,30.998194],[-87.25796,30.998263],[-87.259689,30.998172],[-87.26054,30.998195],[-87.265564,30.998267],[-87.288905,30.998345],[-87.290995,30.998352],[-87.301567,30.998434],[-87.30403,30.998191],[-87.312183,30.998435],[-87.333973,30.998272],[-87.355656,30.998244],[-87.364011,30.998218],[-87.367842,30.998292],[-87.425774,30.99809],[-87.432292,30.998205],[-87.449811,30.998272],[-87.455705,30.998318],[-87.458658,30.998386],[-87.461638,30.998202],[-87.461783,30.998201],[-87.466827,30.998178],[-87.466879,30.998178],[-87.478706,30.998213],[-87.479703,30.998197],[-87.480243,30.998202],[-87.548543,30.997927],[-87.571281,30.99787],[-87.598928,30.997457],[-87.598927,30.997454],[-87.594111,30.976335],[-87.601355,30.936294],[-87.622203,30.897508],[-87.634938,30.865886],[-87.624137,30.845713],[-87.532607,30.743489],[-87.502926,30.722369],[-87.497515,30.720123],[-87.481225,30.716508],[-87.449362,30.698913],[-87.407118,30.671796],[-87.396997,30.65364],[-87.394219,30.641699],[-87.394479,30.625192],[-87.449921,30.51469],[-87.449841,30.514369],[-87.448332,30.513063],[-87.430578,30.491096],[-87.419177,30.410198],[-87.427478,30.408398],[-87.440678,30.391498],[-87.451378,30.367199],[-87.450962,30.346262],[-87.450078,30.3111],[-87.452378,30.300201],[-87.518324,30.280435],[-87.544533,30.275659],[-87.558097,30.274437],[-87.581362,30.269257],[-87.656888,30.249709],[-87.73553,30.240679],[-87.80056,30.229365],[-87.838462,30.227185],[-87.926119,30.230373],[-87.962253,30.229522],[-87.999996,30.225753],[-88.014572,30.222366],[-88.028401,30.221132],[-88.029272,30.222714],[-88.023991,30.23039],[-87.966847,30.235618],[-87.948979,30.256564],[-87.936041,30.261469],[-87.918247,30.253308],[-87.913762,30.247837],[-87.90046,30.241531],[-87.893201,30.239237],[-87.879343,30.23859],[-87.860085,30.240289],[-87.817743,30.254292],[-87.802087,30.253054],[-87.78775,30.254244],[-87.766626,30.262353],[-87.755263,30.277292],[-87.755516,30.291217],[-87.772758,30.311701],[-87.796717,30.324198],[-87.809266,30.332702],[-87.82988,30.353809],[-87.837239,30.369324],[-87.845132,30.377446],[-87.853806,30.378481],[-87.865017,30.38345],[-87.906343,30.40938],[-87.908908,30.41424],[-87.914136,30.446144],[-87.920031,30.470645],[-87.924211,30.4761],[-87.931902,30.4811],[-87.933355,30.487357],[-87.911141,30.525848],[-87.905343,30.537566],[-87.901711,30.550879],[-87.904168,30.565985],[-87.907891,30.573114],[-87.911431,30.576261],[-87.914956,30.585893],[-87.91253,30.615795],[-87.919346,30.63606],[-87.93107,30.652694],[-87.936717,30.657432],[-87.955989,30.658862],[-87.981196,30.67509],[-88.008396,30.684956],[-88.012444,30.68319],[-88.022076,30.673873],[-88.026706,30.66149],[-88.034588,30.653715],[-88.044339,30.652568],[-88.061998,30.644891],[-88.059598,30.619091],[-88.053998,30.612491],[-88.064898,30.588292],[-88.074898,30.578892],[-88.085493,30.563258],[-88.081617,30.546317],[-88.082792,30.528713],[-88.090734,30.52357],[-88.100874,30.50975],[-88.103768,30.500903],[-88.102988,30.493029],[-88.096867,30.471053],[-88.100646,30.46122],[-88.106437,30.452738],[-88.10407,30.4273],[-88.107274,30.377246],[-88.115432,30.35657],[-88.124611,30.341623],[-88.128052,30.338509],[-88.136173,30.320729],[-88.155775,30.327184],[-88.171967,30.324679],[-88.191542,30.317002],[-88.195664,30.321242],[-88.198361,30.338819],[-88.196353,30.343586],[-88.188532,30.345053],[-88.188527,30.348124],[-88.200065,30.362378],[-88.204495,30.362102],[-88.260695,30.382381],[-88.282635,30.382876],[-88.290649,30.370741],[-88.311608,30.368908],[-88.316525,30.369985],[-88.319599,30.380334],[-88.332277,30.38844],[-88.341345,30.38947],[-88.364022,30.388006],[-88.374671,30.385608],[-88.395023,30.369425],[-88.402283,30.510852],[-88.403547,30.5331],[-88.403931,30.543359],[-88.404013,30.54506],[-88.407484,30.622736],[-88.407462,30.631653],[-88.40807,30.63697],[-88.409571,30.668731],[-88.411339,30.706334],[-88.41155,30.712956],[-88.412209,30.730395],[-88.41227,30.731771],[-88.412462,30.735598],[-88.425635,30.998301],[-88.425729,31.000183],[-88.425807,31.001123],[-88.432007,31.114298],[-88.438104,31.23006],[-88.438211,31.231252],[-88.445182,31.355855],[-88.445209,31.355969],[-88.448686,31.420888],[-88.44866,31.421277],[-88.449446,31.435837],[-88.459478,31.621652],[-88.459722,31.624002],[-88.464425,31.697881],[-88.464428,31.697952],[-88.471106,31.850949],[-88.471214,31.851385],[-88.46996,31.893759],[-88.468879,31.930262],[-88.46866,31.933173],[-88.455039,32.039719],[-88.454959,32.040576],[-88.43871,32.172078],[-88.43865,32.172806],[-88.431707,32.227662],[-88.421453,32.30868],[-88.403789,32.44977],[-88.403789,32.449885],[-88.388739,32.578116],[-88.383039,32.626679],[-88.382985,32.626954],[-88.347692,32.929059],[-88.340432,32.991199],[-88.304514,33.28832],[-88.291127,33.399061],[-88.277421,33.512436],[-88.276805,33.516463],[-88.274619,33.534008],[-88.27005,33.570819],[-88.269532,33.572894],[-88.269076,33.576929],[-88.26816,33.58504],[-88.267148,33.591989],[-88.267005,33.594229],[-88.256343,33.682053],[-88.256131,33.68286],[-88.254622,33.69578],[-88.254445,33.698779],[-88.24839,33.744908],[-88.226517,33.911551],[-88.226517,33.911665],[-88.226428,33.912875],[-88.207229,34.058333],[-88.203597,34.08653],[-88.176889,34.293858],[-88.175867,34.302171],[-88.173632,34.321054],[-88.16591,34.380926],[-88.165634,34.383102],[-88.155305,34.463087],[-88.139988,34.581703],[-88.139246,34.587795],[-88.138719,34.589215],[-88.118407,34.724292],[-88.097888,34.892202],[-88.125038,34.902227],[-88.200064,34.995634],[-88.18245,35.007712],[-87.984916,35.006256],[-87.877969,35.005468],[-87.877742,35.005512],[-87.872626,35.005571],[-87.853528,35.005541],[-87.853411,35.005576],[-87.851886,35.005656],[-87.773586,35.004946],[-87.767602,35.004783],[-87.75889,35.004711],[-87.709491,35.004089],[-87.702321,35.003945],[-87.700543,35.003988],[-87.696834,35.003852],[-87.671405,35.003537],[-87.664123,35.003523],[-87.606031,35.003343],[-87.428613,35.002795],[-87.421543,35.002679],[-87.4174,35.002669],[-87.391314,35.002374],[-87.381071,35.002118],[-87.359281,35.001823],[-87.349251,35.001662],[-87.299185,35.000915],[-87.270014,35.00039],[-87.230544,34.999484],[-87.224053,34.999327],[-87.216683,34.999148],[-87.210759,34.999024],[-87.011174,34.995162],[-87.000007,34.995121],[-86.974412,34.994513],[-86.972613,34.99461],[-86.970236,34.994546],[-86.96712,34.9944],[-86.862147,34.991956],[-86.849794,34.991924],[-86.846466,34.99186],[-86.83637,34.991764],[-86.836306,34.991764],[-86.820657,34.991764],[-86.783648,34.991925],[-86.783628,34.991925]]]],"type":"MultiPolygon"}},{"_id":"louisiana","type":"Feature","properties":{"name":"Louisiana","abbreviation":"LA","capital":"Baton Rouge","city":"New Orleans","population":4625470,"area":135658,"waterarea":23761,"landarea":111898,"houseseats":6,"statehood":"1812-04-30","group":"US States"},"geometry":{"coordinates":[[[[-88.865067,29.752714],[-88.889755,29.718204],[-88.940346,29.657234],[-88.944435,29.658806],[-88.94632,29.662579],[-88.941605,29.674833],[-88.920235,29.694319],[-88.911751,29.699348],[-88.89006,29.729202],[-88.873611,29.758043],[-88.867973,29.772272],[-88.867973,29.79133],[-88.861267,29.805826],[-88.846497,29.817101],[-88.84301,29.82596],[-88.836296,29.855221],[-88.83683,29.858978],[-88.843277,29.86381],[-88.8312,29.878839],[-88.828247,29.920717],[-88.837379,29.944878],[-88.838715,29.962326],[-88.835495,29.967695],[-88.835495,29.974138],[-88.83979,29.983803],[-88.840866,29.995613],[-88.848373,30.01333],[-88.857368,30.027826],[-88.86972,30.043798],[-88.881454,30.053202],[-88.870476,30.049212],[-88.855583,30.034414],[-88.841225,30.012789],[-88.833725,29.998821],[-88.824158,29.970461],[-88.817017,29.93425],[-88.818146,29.889109],[-88.826538,29.847092],[-88.83271,29.824062],[-88.844078,29.795713],[-88.865067,29.752714]]],[[[-94.043147,32.69303],[-94.043147,32.693031],[-94.042947,32.767991],[-94.043027,32.776863],[-94.042938,32.780558],[-94.042829,32.785277],[-94.042747,32.786973],[-94.043026,32.797476],[-94.042785,32.871486],[-94.043025,32.880446],[-94.042886,32.880965],[-94.042886,32.881089],[-94.042859,32.892771],[-94.042885,32.898911],[-94.043092,32.910021],[-94.043067,32.937903],[-94.043088,32.955592],[-94.042964,33.019219],[-94.041444,33.019188],[-94.035839,33.019145],[-94.027983,33.019139],[-94.024475,33.019207],[-93.814553,33.019372],[-93.80493,33.019347],[-93.531499,33.018643],[-93.524916,33.018637],[-93.520994,33.018616],[-93.520971,33.018616],[-93.490893,33.018442],[-93.49052,33.018442],[-93.489506,33.018443],[-93.467042,33.018611],[-93.377134,33.018234],[-93.340353,33.018337],[-93.308398,33.018179],[-93.308181,33.018156],[-93.238607,33.017992],[-93.197402,33.017951],[-93.154351,33.017856],[-93.101443,33.01774],[-93.100981,33.017786],[-93.081428,33.017928],[-93.073167,33.017898],[-93.070686,33.017792],[-92.988708,33.017298],[-92.971137,33.017192],[-92.946553,33.016807],[-92.86751,33.016062],[-92.854167,33.016132],[-92.844286,33.01607],[-92.844073,33.016034],[-92.830798,33.015661],[-92.733197,33.014347],[-92.724994,33.014351],[-92.724743,33.014347],[-92.723553,33.014328],[-92.715884,33.014398],[-92.711289,33.014307],[-92.503776,33.012161],[-92.501383,33.01216],[-92.469762,33.01201],[-92.37029,33.010717],[-92.362865,33.010628],[-92.335893,33.010349],[-92.292664,33.010103],[-92.222825,33.00908],[-92.069105,33.008163],[-91.951958,33.007428],[-91.950001,33.00752],[-91.62667,33.006639],[-91.617615,33.006717],[-91.609001,33.006556],[-91.579802,33.006518],[-91.579639,33.006472],[-91.572326,33.006908],[-91.559494,33.00684],[-91.46037,33.006246],[-91.435782,33.006099],[-91.425466,33.006016],[-91.376016,33.005794],[-91.333011,33.005529],[-91.329767,33.005421],[-91.326396,33.005376],[-91.325037,33.005364],[-91.322506,33.005341],[-91.312016,33.005262],[-91.284398,33.005007],[-91.265018,33.005084],[-91.166073,33.004106],[-91.201842,32.961212],[-91.214027,32.93032],[-91.212837,32.922104],[-91.208263,32.915354],[-91.196785,32.906784],[-91.175405,32.899998],[-91.159975,32.899879],[-91.145076,32.905494],[-91.134041,32.917676],[-91.132115,32.923122],[-91.130947,32.963815],[-91.138585,32.971352],[-91.134414,32.980533],[-91.125107,32.984669],[-91.106581,32.988938],[-91.094265,32.984371],[-91.086802,32.976266],[-91.063974,32.924113],[-91.063809,32.903709],[-91.070602,32.888659],[-91.086683,32.873392],[-91.105631,32.858396],[-91.116091,32.855641],[-91.127886,32.855059],[-91.145002,32.84287],[-91.158336,32.822304],[-91.161669,32.812465],[-91.164397,32.785821],[-91.165328,32.751301],[-91.163389,32.747009],[-91.154461,32.742339],[-91.123152,32.742798],[-91.077176,32.732534],[-91.060766,32.727494],[-91.054481,32.722259],[-91.057043,32.712576],[-91.063946,32.702926],[-91.076061,32.693751],[-91.098762,32.685291],[-91.118258,32.674075],[-91.152081,32.641508],[-91.153821,32.631282],[-91.151318,32.615919],[-91.146204,32.604144],[-91.141148,32.597209],[-91.127912,32.586493],[-91.119854,32.584795],[-91.104111,32.584657],[-91.096774,32.576652],[-91.090771,32.563978],[-91.090611,32.562705],[-91.089436,32.553306],[-91.093741,32.549128],[-91.097878,32.544752],[-91.116708,32.500139],[-91.116008,32.48314],[-91.108808,32.47204],[-91.095308,32.458741],[-91.070207,32.445141],[-91.052907,32.438442],[-91.029606,32.433542],[-90.99408,32.403862],[-91.004506,32.368144],[-91.003506,32.362145],[-91.000106,32.357695],[-90.986672,32.35176],[-90.912363,32.339454],[-90.901511,32.337864],[-90.898588,32.329094],[-90.905173,32.315497],[-91.004557,32.215381],[-91.006306,32.22415],[-91.021507,32.236149],[-91.039007,32.242349],[-91.046507,32.241149],[-91.122602,32.216929],[-91.133587,32.213432],[-91.158026,32.201956],[-91.164171,32.196888],[-91.171046,32.176526],[-91.174552,32.154978],[-91.171702,32.14425],[-91.165452,32.13429],[-91.162822,32.132694],[-91.131403,32.126213],[-91.067004,32.132144],[-91.057487,32.135515],[-91.052342,32.137337],[-91.046615,32.138768],[-91.040531,32.137337],[-91.034447,32.134832],[-91.030152,32.129821],[-91.026931,32.123737],[-91.027125,32.120434],[-91.027535,32.113431],[-91.027946,32.112722],[-91.034707,32.101053],[-91.128009,31.985857],[-91.248144,31.869848],[-91.293413,31.86016],[-91.326914,31.854961],[-91.338414,31.851261],[-91.345714,31.842861],[-91.359514,31.799362],[-91.363714,31.780363],[-91.365614,31.760763],[-91.365084,31.752743],[-91.369375,31.746903],[-91.379935,31.733013],[-91.397915,31.709364],[-91.400115,31.688164],[-91.398059,31.655922],[-91.404668,31.637898],[-91.42209,31.63129],[-91.441315,31.63129],[-91.45273,31.63129],[-91.464746,31.628886],[-91.474959,31.621677],[-91.477963,31.610863],[-91.477963,31.604855],[-91.477963,31.598247],[-91.477362,31.592239],[-91.470754,31.58563],[-91.458679,31.583226],[-91.44862,31.583032],[-91.437711,31.580824],[-91.425094,31.57782],[-91.415482,31.567006],[-91.416683,31.561599],[-91.422691,31.55439],[-91.437616,31.546166],[-91.450017,31.539666],[-91.479718,31.530366],[-91.511217,31.532612],[-91.51581,31.530894],[-91.52292,31.519841],[-91.51513,31.449206],[-91.510356,31.438928],[-91.505301,31.432945],[-91.500406,31.419008],[-91.505093,31.400933],[-91.513795,31.386875],[-91.525386,31.378904],[-91.541242,31.35675],[-91.539904,31.337336],[-91.531201,31.326625],[-91.51982,31.311228],[-91.508858,31.291644],[-91.515614,31.27821],[-91.522397,31.273423],[-91.547588,31.264444],[-91.574493,31.261289],[-91.59849,31.205485],[-91.599965,31.192318],[-91.604197,31.154545],[-91.577373,31.078179],[-91.56415,31.06683],[-91.561283,31.060906],[-91.559907,31.054119],[-91.562468,31.043213],[-91.571695,31.029782],[-91.58467,31.020185],[-91.636942,30.999416],[-91.625118,30.999167],[-91.538727,30.999388],[-91.425749,30.999007],[-91.423621,30.998984],[-91.224839,30.999183],[-91.224068,30.999183],[-91.176209,30.999144],[-91.17614,30.999144],[-91.108291,30.99888],[-91.108114,30.998857],[-91.080814,30.998909],[-91.06827,30.99892],[-91.060217,30.998935],[-90.826027,30.99936],[-90.825829,30.99936],[-90.783745,30.999447],[-90.779858,30.999457],[-90.775981,30.999491],[-90.769333,30.999374],[-90.758775,30.999583],[-90.734552,30.999222],[-90.734473,30.999214],[-90.651193,30.99951],[-90.648721,30.999486],[-90.588676,30.99965],[-90.587373,30.999604],[-90.584448,30.999698],[-90.583518,30.999698],[-90.567195,30.999733],[-90.547615,30.999723],[-90.486749,30.999693],[-90.485876,30.99974],[-90.477284,30.999717],[-90.475928,30.99974],[-90.474094,30.999798],[-90.442479,30.999722],[-90.441725,30.999729],[-90.437351,30.99973],[-90.426849,30.999776],[-90.422117,30.99981],[-90.369371,31.000335],[-90.347241,31.000359],[-90.34723,31.000359],[-90.346007,31.000363],[-90.259555,31.000657],[-90.164676,31.00098],[-90.164278,31.001025],[-90.131395,31.000924],[-90.128406,31.001047],[-90.050706,31.001215],[-90.029574,31.00119],[-90.022185,31.001302],[-90.005332,31.001364],[-89.97543,31.001692],[-89.972802,31.001392],[-89.927161,31.001437],[-89.923119,31.001446],[-89.897516,31.001913],[-89.892708,31.001759],[-89.856862,31.002075],[-89.835908,31.002059],[-89.835542,31.002059],[-89.824617,31.00206],[-89.816429,31.002084],[-89.752642,31.001853],[-89.732504,31.004831],[-89.728147,31.002431],[-89.728148,31.0023],[-89.728382,30.971141],[-89.744789,30.918933],[-89.756543,30.900431],[-89.770931,30.899432],[-89.77341,30.897693],[-89.789863,30.851527],[-89.826175,30.736594],[-89.842596,30.666038],[-89.842585,30.666005],[-89.823384,30.608535],[-89.806843,30.572039],[-89.76057,30.515761],[-89.732577,30.492502],[-89.724614,30.491902],[-89.69058,30.458773],[-89.68341,30.451793],[-89.629941,30.339449],[-89.629877,30.321017],[-89.640694,30.301313],[-89.643575,30.293099],[-89.64344,30.287682],[-89.607655,30.217096],[-89.580754,30.186197],[-89.572654,30.180897],[-89.524504,30.180753],[-89.531213,30.177099],[-89.537493,30.171745],[-89.555013,30.170798],[-89.562825,30.168667],[-89.56827,30.163932],[-89.572093,30.160362],[-89.587062,30.150648],[-89.595021,30.149891],[-89.598027,30.152409],[-89.617542,30.156422],[-89.62288,30.152368],[-89.625053,30.150717],[-89.640989,30.138612],[-89.64455,30.134108],[-89.650467,30.126625],[-89.656986,30.118381],[-89.658594,30.117364],[-89.668164,30.111311],[-89.668638,30.111011],[-89.669157,30.110683],[-89.669182,30.110667],[-89.672881,30.11049],[-89.674124,30.11043],[-89.674633,30.110406],[-89.674956,30.110212],[-89.675762,30.109728],[-89.676117,30.109515],[-89.678156,30.10829],[-89.678163,30.108286],[-89.678293,30.107746],[-89.678457,30.107059],[-89.678499,30.106886],[-89.679655,30.102067],[-89.679823,30.101367],[-89.679838,30.101304],[-89.680042,30.100452],[-89.68035,30.099171],[-89.680485,30.098605],[-89.681265,30.095355],[-89.681906,30.092682],[-89.682057,30.092052],[-89.682181,30.091536],[-89.682181,30.091531],[-89.682277,30.090565],[-89.68228,30.090531],[-89.682331,30.090015],[-89.682371,30.089607],[-89.682393,30.089391],[-89.682409,30.089225],[-89.682691,30.086365],[-89.683051,30.082718],[-89.683168,30.08153],[-89.683712,30.076018],[-89.697556,30.070842],[-89.698461,30.070504],[-89.698496,30.070491],[-89.698909,30.070451],[-89.699144,30.070428],[-89.699629,30.070381],[-89.711848,30.069194],[-89.712942,30.069088],[-89.713003,30.069061],[-89.714085,30.068582],[-89.714827,30.068253],[-89.715494,30.067958],[-89.715884,30.067785],[-89.716237,30.067628],[-89.716425,30.067545],[-89.71675,30.067402],[-89.716887,30.067341],[-89.721992,30.06508],[-89.724433,30.063999],[-89.72633,30.063158],[-89.727453,30.062661],[-89.728026,30.061841],[-89.72957,30.059628],[-89.72968,30.05947],[-89.72979,30.059314],[-89.729911,30.059139],[-89.73099,30.057594],[-89.730999,30.057581],[-89.731208,30.054558],[-89.731428,30.051377],[-89.731452,30.05104],[-89.731545,30.049694],[-89.731545,30.049691],[-89.731544,30.04969],[-89.7163,30.02811],[-89.7163,30.028106],[-89.716301,30.028088],[-89.716328,30.027415],[-89.716336,30.02723],[-89.716358,30.026686],[-89.716377,30.026222],[-89.724649,30.022454],[-89.724669,30.022453],[-89.72576,30.022403],[-89.733323,30.022054],[-89.734361,30.022884],[-89.739028,30.026618],[-89.739574,30.027055],[-89.740886,30.028104],[-89.745827,30.032056],[-89.746313,30.032445],[-89.746505,30.032599],[-89.746506,30.0326],[-89.757138,30.03865],[-89.763216,30.042108],[-89.782534,30.045372],[-89.78463,30.045253],[-89.813684,30.043605],[-89.818561,30.043328],[-89.829762,30.033275],[-89.830442,30.032664],[-89.832213,30.031075],[-89.832965,30.0304],[-89.833794,30.029656],[-89.834644,30.028893],[-89.835202,30.028393],[-89.839926,30.024153],[-89.839933,30.024146],[-89.840963,30.022995],[-89.841739,30.022127],[-89.854533,30.007821],[-89.857558,30.004439],[-89.852312,29.97765],[-89.844202,29.955645],[-89.8385,29.945816],[-89.829023,29.939228],[-89.81803,29.934145],[-89.804463,29.932588],[-89.775459,29.937416],[-89.748492,29.945831],[-89.727933,29.95878],[-89.719067,29.953699],[-89.71291,29.946349],[-89.736311,29.936263],[-89.742727,29.935894],[-89.746273,29.928221],[-89.742479,29.90817],[-89.711158,29.879287],[-89.692004,29.868722],[-89.671555,29.867535],[-89.660568,29.862909],[-89.638016,29.864065],[-89.613159,29.87216],[-89.598129,29.881409],[-89.591194,29.897018],[-89.592346,29.917253],[-89.583099,29.931705],[-89.583099,29.945581],[-89.574997,29.959455],[-89.574425,29.983738],[-89.58136,29.994722],[-89.571533,29.999926],[-89.551292,30.005709],[-89.501587,30.034037],[-89.494064,30.040972],[-89.494637,30.0508],[-89.499275,30.058893],[-89.493484,30.072191],[-89.481926,30.079128],[-89.458946,30.06345],[-89.444618,30.060959],[-89.429047,30.05224],[-89.418465,30.049747],[-89.372375,30.054729],[-89.368637,30.047256],[-89.372375,30.036671],[-89.381096,30.030441],[-89.393555,30.029818],[-89.41597,30.020477],[-89.422813,30.015495],[-89.432785,30.008022],[-89.433411,29.991205],[-89.432785,29.978752],[-89.40538,29.965672],[-89.393555,29.966295],[-89.379227,29.963804],[-89.378601,29.919588],[-89.368019,29.911491],[-89.331894,29.91585],[-89.315453,29.923208],[-89.283562,29.97332],[-89.273315,29.99382],[-89.250534,30.002361],[-89.243706,29.997236],[-89.249969,29.975597],[-89.218071,29.97275],[-89.22377,29.961929],[-89.231178,29.925484],[-89.244843,29.93004],[-89.263062,29.929472],[-89.280144,29.924915],[-89.318306,29.898149],[-89.322289,29.887333],[-89.311462,29.881636],[-89.289253,29.880499],[-89.272179,29.886763],[-89.241425,29.88961],[-89.236298,29.886763],[-89.236298,29.877081],[-89.254517,29.864552],[-89.269897,29.859997],[-89.294952,29.857149],[-89.317726,29.850885],[-89.363289,29.84576],[-89.383789,29.838928],[-89.383217,29.830385],[-89.372971,29.82526],[-89.345634,29.820135],[-89.342781,29.798496],[-89.33197,29.790524],[-89.318306,29.788815],[-89.293251,29.803053],[-89.277298,29.807608],[-89.277298,29.799635],[-89.284134,29.795649],[-89.284706,29.770021],[-89.269325,29.760912],[-89.271034,29.756355],[-89.305199,29.756926],[-89.316025,29.760912],[-89.325134,29.772301],[-89.337662,29.779135],[-89.354179,29.781412],[-89.367271,29.775148],[-89.386063,29.788815],[-89.394608,29.784828],[-89.399162,29.770592],[-89.414536,29.752371],[-89.428207,29.74155],[-89.42421,29.697638],[-89.44812,29.703316],[-89.471992,29.718597],[-89.486961,29.72592],[-89.506065,29.731651],[-89.530258,29.74375],[-89.540131,29.74375],[-89.560181,29.735472],[-89.572922,29.746616],[-89.598068,29.74757],[-89.634048,29.752981],[-89.651237,29.749479],[-89.649651,29.719872],[-89.644562,29.710957],[-89.618446,29.700768],[-89.59903,29.704908],[-89.592979,29.702042],[-89.599663,29.690262],[-89.596802,29.684212],[-89.573883,29.674025],[-89.55732,29.670204],[-89.53376,29.670204],[-89.487915,29.630405],[-89.485367,29.624357],[-89.486709,29.621003],[-89.486931,29.620447],[-89.504738,29.631508],[-89.523018,29.639427],[-89.535202,29.648567],[-89.583336,29.652834],[-89.608925,29.657707],[-89.621109,29.657101],[-89.62355,29.662584],[-89.632698,29.671724],[-89.644272,29.675381],[-89.64975,29.672941],[-89.641228,29.647961],[-89.641228,29.635773],[-89.647324,29.625414],[-89.657677,29.624195],[-89.674736,29.626633],[-89.684486,29.624804],[-89.688141,29.615055],[-89.684486,29.602867],[-89.671082,29.588243],[-89.668648,29.580322],[-89.684486,29.563263],[-89.684486,29.551073],[-89.681092,29.534487],[-89.69623,29.525004],[-89.699698,29.523423],[-89.700845,29.520785],[-89.700501,29.515967],[-89.693877,29.508559],[-89.665813,29.49002],[-89.644039,29.492343],[-89.63533,29.489294],[-89.617558,29.468298],[-89.596533,29.456303],[-89.592474,29.449822],[-89.589536,29.437662],[-89.577096,29.433692],[-89.574635,29.435734],[-89.574653,29.4411],[-89.548686,29.465723],[-89.528429,29.454702],[-89.53215,29.434567],[-89.531943,29.425679],[-89.518368,29.40023],[-89.508551,29.386168],[-89.505038,29.38604],[-89.487308,29.393346],[-89.484354,29.397471],[-89.482318,29.406222],[-89.47714,29.411241],[-89.470142,29.401471],[-89.457303,29.393148],[-89.42238,29.390628],[-89.380001,29.391785],[-89.373109,29.387175],[-89.355528,29.381569],[-89.340304,29.381412],[-89.336589,29.378228],[-89.347615,29.365],[-89.350694,29.349544],[-89.32317,29.343982],[-89.303766,29.357455],[-89.283028,29.356467],[-89.272543,29.351195],[-89.2653,29.345352],[-89.257852,29.336872],[-89.253545,29.322802],[-89.24087,29.310081],[-89.224192,29.313792],[-89.223444,29.318066],[-89.219734,29.324412],[-89.204703,29.338674],[-89.200389,29.344418],[-89.200599,29.347672],[-89.189354,29.345061],[-89.179547,29.339608],[-89.177351,29.33521],[-89.178221,29.32697],[-89.165015,29.303039],[-89.157593,29.296691],[-89.140275,29.291085],[-89.134337,29.27934],[-89.136979,29.275239],[-89.129688,29.265632],[-89.100106,29.25022],[-89.096173,29.24293],[-89.095544,29.238028],[-89.098389,29.232963],[-89.105833,29.231608],[-89.106244,29.215912],[-89.10065,29.206314],[-89.090724,29.199992],[-89.068265,29.204166],[-89.067371,29.208636],[-89.029103,29.220956],[-89.02185,29.218162],[-89.015192,29.211561],[-89.000674,29.180091],[-89.00529,29.164949],[-89.013254,29.16328],[-89.018344,29.165046],[-89.024269,29.170043],[-89.043919,29.162528],[-89.047233,29.157833],[-89.03873,29.14238],[-89.032004,29.144747],[-89.024149,29.137298],[-89.023942,29.1337],[-89.026031,29.130126],[-89.051953,29.106554],[-89.055475,29.084167],[-89.062335,29.070234],[-89.09126,29.066931],[-89.098068,29.067984],[-89.105009,29.073641],[-89.121542,29.069074],[-89.143453,29.047591],[-89.156339,29.028782],[-89.162,29.01586],[-89.162326,29.011713],[-89.164788,29.008703],[-89.16985,29.008703],[-89.175732,29.012123],[-89.186061,29.017993],[-89.18215,29.025486],[-89.189893,29.032635],[-89.197871,29.029701],[-89.202563,29.031603],[-89.211144,29.040813],[-89.216101,29.056371],[-89.215531,29.06141],[-89.217201,29.067275],[-89.225865,29.07866],[-89.23631,29.084605],[-89.254726,29.083261],[-89.257283,29.081086],[-89.256869,29.0738],[-89.25364,29.064954],[-89.259354,29.058358],[-89.283215,29.053325],[-89.29109,29.053097],[-89.304888,29.046379],[-89.315389,29.039081],[-89.318102,29.035342],[-89.315182,29.032662],[-89.32485,29.013805],[-89.335228,29.015003],[-89.338249,29.012935],[-89.383814,28.947434],[-89.41148,28.925011],[-89.419865,28.929709],[-89.412388,28.957504],[-89.408157,28.965341],[-89.398104,28.977016],[-89.382106,28.981525],[-89.375049,28.985368],[-89.334735,29.040335],[-89.339828,29.052221],[-89.354798,29.072543],[-89.374522,29.084174],[-89.405654,29.086936],[-89.411154,29.105838],[-89.409371,29.127855],[-89.417718,29.13869],[-89.428965,29.14451],[-89.432932,29.149023],[-89.447472,29.178576],[-89.455829,29.190991],[-89.47231,29.20755],[-89.482844,29.215053],[-89.5366,29.236212],[-89.606651,29.252023],[-89.671781,29.289028],[-89.697258,29.296679],[-89.726162,29.304026],[-89.782149,29.311132],[-89.819859,29.310241],[-89.850305,29.311768],[-89.855109,29.334997],[-89.853699,29.34064],[-89.847124,29.349186],[-89.835,29.359043],[-89.820824,29.377486],[-89.816916,29.384385],[-89.816155,29.393518],[-89.816916,29.398845],[-89.819199,29.404173],[-89.822243,29.4095],[-89.826049,29.415589],[-89.835392,29.418538],[-89.843553,29.421677],[-89.845075,29.434615],[-89.836773,29.45404],[-89.833659,29.456686],[-89.833659,29.459731],[-89.832898,29.463536],[-89.833659,29.467341],[-89.83442,29.470386],[-89.840509,29.47343],[-89.849642,29.477996],[-89.86258,29.476474],[-89.876224,29.472168],[-89.902179,29.460011],[-89.918999,29.444254],[-89.932598,29.429288],[-89.95543,29.428527],[-89.96195,29.432874],[-89.964563,29.434615],[-89.972934,29.443748],[-89.991961,29.463536],[-90.01251,29.462775],[-90.018598,29.45212],[-90.022404,29.444509],[-90.029466,29.432015],[-90.032298,29.427005],[-90.031536,29.412545],[-90.033295,29.393274],[-90.029468,29.388136],[-90.029614,29.386658],[-90.029967,29.383087],[-90.030761,29.375043],[-90.030764,29.375008],[-90.030855,29.374876],[-90.033604,29.370851],[-90.035415,29.368201],[-90.036374,29.363661],[-90.032842,29.348624],[-90.031815,29.344251],[-90.034275,29.322661],[-90.028536,29.307083],[-90.013778,29.30271],[-90.009678,29.294785],[-90.016288,29.284257],[-90.019517,29.282213],[-90.032088,29.280027],[-90.043293,29.282487],[-90.057094,29.281331],[-90.061057,29.276748],[-90.059691,29.272648],[-90.060511,29.267729],[-90.070622,29.262537],[-90.086747,29.259257],[-90.091119,29.261443],[-90.097678,29.26199],[-90.101231,29.259804],[-90.096038,29.240673],[-90.073355,29.227282],[-90.073355,29.210611],[-90.070622,29.208698],[-90.06361,29.209474],[-90.04291,29.211765],[-90.019772,29.231903],[-90.005718,29.240627],[-89.969981,29.255753],[-89.965667,29.259126],[-89.959509,29.267677],[-89.951175,29.266124],[-89.949925,29.263154],[-89.950756,29.260801],[-89.95646,29.253744],[-90.022029,29.216065],[-90.058512,29.183687],[-90.079276,29.16997],[-90.088684,29.162574],[-90.104162,29.150407],[-90.174273,29.105301],[-90.223587,29.085075],[-90.231984,29.08773],[-90.245283,29.085824],[-90.343293,29.057062],[-90.348768,29.057817],[-90.349891,29.063681],[-90.325514,29.075138],[-90.304129,29.077332],[-90.29293,29.078761],[-90.282983,29.082326],[-90.26629,29.089421],[-90.258145,29.091627],[-90.253141,29.093772],[-90.249806,29.100919],[-90.250044,29.108067],[-90.243849,29.11045],[-90.234235,29.110268],[-90.234405,29.128824],[-90.243435,29.136311],[-90.248629,29.13837],[-90.26901,29.139242],[-90.280516,29.142521],[-90.27832,29.150691],[-90.297,29.171317],[-90.302846,29.175098],[-90.302948,29.187948],[-90.300885,29.196171],[-90.293183,29.199789],[-90.2828,29.192545],[-90.275851,29.193668],[-90.271251,29.204639],[-90.286621,29.225694],[-90.300304,29.231241],[-90.311663,29.237954],[-90.311523,29.256374],[-90.316093,29.264777],[-90.332796,29.276956],[-90.367166,29.274128],[-90.368154,29.270736],[-90.367012,29.264956],[-90.372565,29.258923],[-90.387924,29.252786],[-90.383857,29.235606],[-90.399465,29.201046],[-90.408578,29.196421],[-90.409416,29.196135],[-90.432912,29.188132],[-90.435907,29.188449],[-90.443954,29.19583],[-90.472489,29.192688],[-90.473273,29.195224],[-90.468773,29.198469],[-90.467233,29.202549],[-90.485786,29.209843],[-90.494928,29.216713],[-90.490987,29.220883],[-90.46832,29.227532],[-90.465764,29.242951],[-90.462866,29.249809],[-90.450674,29.263739],[-90.452186,29.26625],[-90.472779,29.272556],[-90.495299,29.287277],[-90.510555,29.290925],[-90.517277,29.282719],[-90.526216,29.276492],[-90.552005,29.278512],[-90.565436,29.285111],[-90.582525,29.276037],[-90.589724,29.248521],[-90.58847,29.245863],[-90.583924,29.242886],[-90.576506,29.243986],[-90.565378,29.242475],[-90.544547,29.230683],[-90.543245,29.227843],[-90.544311,29.224292],[-90.556501,29.219913],[-90.55739,29.207881],[-90.560889,29.204261],[-90.575277,29.206827],[-90.618413,29.20329],[-90.624161,29.210366],[-90.62742,29.211004],[-90.633819,29.209128],[-90.640223,29.196554],[-90.645612,29.175867],[-90.645169,29.172958],[-90.640863,29.171261],[-90.636973,29.164572],[-90.647042,29.12858],[-90.677724,29.118742],[-90.691109,29.121722],[-90.700893,29.12147],[-90.718035,29.116611],[-90.731239,29.122886],[-90.764189,29.113374],[-90.773458,29.100133],[-90.799444,29.087377],[-90.802053,29.083322],[-90.803699,29.063709],[-90.79872,29.054841],[-90.781981,29.049431],[-90.765188,29.049403],[-90.750092,29.053247],[-90.7253,29.066616],[-90.709105,29.064305],[-90.70535,29.062679],[-90.702102,29.060275],[-90.692205,29.059607],[-90.683645,29.060944],[-90.676958,29.063619],[-90.665589,29.06723],[-90.652348,29.069237],[-90.644189,29.07151],[-90.641247,29.072313],[-90.63924,29.072848],[-90.637623,29.072084],[-90.636033,29.069792],[-90.637495,29.066608],[-90.648058,29.062649],[-90.730899,29.042259],[-90.755677,29.038997],[-90.79768,29.039741],[-90.811473,29.03658],[-90.839345,29.039167],[-90.842762,29.042947],[-90.844849,29.048721],[-90.841226,29.054266],[-90.844593,29.06728],[-90.862757,29.094863],[-90.867766,29.095434],[-90.877583,29.104891],[-90.885351,29.117016],[-90.898215,29.131342],[-90.925797,29.153116],[-90.941877,29.162373],[-90.948091,29.174104],[-90.961278,29.180817],[-90.981458,29.171211],[-91.000096,29.169481],[-91.023955,29.174784],[-91.031786,29.182188],[-91.05863,29.181734],[-91.094015,29.187711],[-91.11476,29.207918],[-91.129141,29.215863],[-91.199647,29.221287],[-91.219032,29.226051],[-91.278792,29.247776],[-91.302677,29.265958],[-91.334885,29.298775],[-91.33275,29.305816],[-91.309314,29.305698],[-91.299054,29.309017],[-91.291821,29.311357],[-91.29042,29.313062],[-91.279742,29.326058],[-91.276647,29.329825],[-91.276187,29.332783],[-91.274308,29.344878],[-91.270582,29.355415],[-91.270053,29.356912],[-91.26994,29.357231],[-91.266589,29.361218],[-91.265479,29.361767],[-91.251546,29.368659],[-91.251232,29.368814],[-91.249517,29.369662],[-91.249109,29.369864],[-91.245558,29.37058],[-91.238515,29.371999],[-91.235348,29.370638],[-91.222377,29.360703],[-91.207299,29.360703],[-91.197465,29.369882],[-91.200087,29.38955],[-91.218463,29.407235],[-91.215976,29.412505],[-91.214284,29.416089],[-91.211999,29.420931],[-91.2151,29.427542],[-91.217448,29.432549],[-91.218067,29.433193],[-91.219242,29.434418],[-91.221166,29.436421],[-91.24164,29.441021],[-91.251319,29.444483],[-91.258226,29.446954],[-91.259537,29.458001],[-91.259844,29.460582],[-91.259988,29.461803],[-91.260024,29.462102],[-91.261588,29.464954],[-91.265649,29.472362],[-91.2813,29.481547],[-91.294325,29.476894],[-91.335742,29.485886],[-91.343567,29.492593],[-91.34588,29.504538],[-91.356625,29.515191],[-91.402214,29.511914],[-91.420449,29.515745],[-91.42713,29.520215],[-91.432337,29.53283],[-91.439941,29.540434],[-91.447345,29.544749],[-91.468748,29.544299],[-91.517274,29.52974],[-91.531021,29.531543],[-91.531471,29.535374],[-91.52584,29.545946],[-91.525523,29.551904],[-91.529217,29.558598],[-91.537445,29.565888],[-91.541974,29.594353],[-91.553537,29.632766],[-91.560908,29.63735],[-91.570589,29.638312],[-91.581843,29.637165],[-91.600179,29.631156],[-91.625114,29.626195],[-91.643832,29.630625],[-91.648941,29.633635],[-91.648657,29.636713],[-91.646478,29.639427],[-91.643198,29.640274],[-91.637344,29.647217],[-91.627286,29.662132],[-91.625114,29.671679],[-91.626826,29.684753],[-91.623829,29.69924],[-91.618479,29.710816],[-91.61809,29.720694],[-91.621512,29.735429],[-91.632829,29.742576],[-91.667128,29.745822],[-91.710935,29.738993],[-91.737253,29.74937],[-91.752259,29.748264],[-91.783674,29.740689],[-91.830499,29.718918],[-91.845962,29.708763],[-91.85864,29.703121],[-91.866516,29.70715],[-91.88075,29.710839],[-91.880999,29.713338],[-91.878331,29.716087],[-91.875637,29.722316],[-91.87557,29.722471],[-91.87557,29.728043],[-91.878355,29.735007],[-91.879748,29.742668],[-91.878355,29.751025],[-91.874761,29.760083],[-91.859151,29.783331],[-91.854677,29.807436],[-91.869998,29.828328],[-91.889118,29.836023],[-91.90689,29.83094],[-91.915989,29.815654],[-91.919143,29.815379],[-91.940723,29.817008],[-91.96123,29.810221],[-91.970443,29.80431],[-91.978381,29.799217],[-91.983871,29.794516],[-92.035666,29.781662],[-92.056398,29.772313],[-92.107486,29.744429],[-92.144431,29.716418],[-92.149349,29.697052],[-92.134347,29.669516],[-92.132804,29.660462],[-92.111787,29.62177],[-92.093419,29.618694],[-92.06564,29.619967],[-92.04767,29.624527],[-92.02532,29.625647],[-92.01627,29.618741],[-92.000371,29.613143],[-92.000003,29.613013],[-91.965031,29.608019],[-91.939903,29.610291],[-91.935024,29.612239],[-91.929567,29.61884],[-91.922825,29.633173],[-91.898996,29.63701],[-91.896763,29.634618],[-91.882318,29.62977],[-91.866113,29.631583],[-91.863018,29.633739],[-91.841294,29.62962],[-91.838981,29.624475],[-91.840921,29.619913],[-91.838297,29.616041],[-91.821693,29.606049],[-91.803831,29.599562],[-91.784976,29.595204],[-91.7785,29.58922],[-91.774805,29.582113],[-91.774686,29.576387],[-91.74632,29.574337],[-91.719102,29.565568],[-91.715642,29.565844],[-91.712002,29.56474],[-91.709205,29.561012],[-91.711654,29.55427],[-91.733956,29.539504],[-91.747058,29.535144],[-91.765448,29.520844],[-91.771927,29.504871],[-91.772529,29.499016],[-91.770069,29.493812],[-91.770516,29.488953],[-91.782387,29.482882],[-91.789119,29.482081],[-91.800121,29.486828],[-91.803448,29.486851],[-91.814609,29.482061],[-91.821576,29.473925],[-91.8385,29.478874],[-91.848665,29.484144],[-91.852598,29.494984],[-91.862324,29.502393],[-91.878746,29.502937],[-91.886815,29.505577],[-91.906175,29.518052],[-91.915322,29.518513],[-91.947007,29.53316],[-91.969312,29.536893],[-91.985726,29.547708],[-92.02681,29.566805],[-92.035462,29.57864],[-92.041168,29.581648],[-92.046316,29.584362],[-92.066533,29.583842],[-92.105923,29.586335],[-92.158624,29.581616],[-92.21259,29.562479],[-92.25186,29.539354],[-92.280392,29.533434],[-92.309357,29.533026],[-92.347236,29.539394],[-92.402165,29.551269],[-92.473585,29.561081],[-92.558602,29.569935],[-92.61627,29.578729],[-92.617725,29.579092],[-92.653651,29.588065],[-92.744126,29.617608],[-92.871232,29.670028],[-92.940455,29.701033],[-92.974305,29.71398],[-93.065354,29.740966],[-93.088182,29.749125],[-93.17693,29.770487],[-93.226934,29.777519],[-93.267456,29.778113],[-93.295573,29.775071],[-93.342104,29.763402],[-93.344993,29.759618],[-93.347331,29.759046],[-93.372029,29.763049],[-93.438973,29.768949],[-93.475252,29.769242],[-93.538462,29.763299],[-93.590786,29.755649],[-93.635304,29.752806],[-93.68364,29.747153],[-93.741948,29.736343],[-93.766048,29.7295],[-93.79925,29.71526],[-93.818995,29.704076],[-93.837971,29.690619],[-93.892246,29.765241],[-93.89847,29.771577],[-93.890679,29.843159],[-93.840799,29.914423],[-93.789431,29.987812],[-93.75663,30.014163],[-93.752038,30.016403],[-93.722481,30.050898],[-93.721589,30.051939],[-93.712101,30.067346],[-93.695684,30.135729],[-93.695252,30.1476],[-93.712008,30.194304],[-93.716223,30.244318],[-93.720575,30.295961],[-93.723586,30.294951],[-93.735896,30.29944],[-93.765822,30.333318],[-93.757654,30.390423],[-93.751437,30.396288],[-93.741701,30.403007],[-93.702665,30.429947],[-93.698302,30.438657],[-93.697828,30.443838],[-93.710117,30.5064],[-93.740045,30.538765],[-93.727844,30.57407],[-93.578395,30.802047],[-93.563292,30.818503],[-93.558672,30.868829],[-93.558617,30.869424],[-93.55497,30.876685],[-93.554576,30.87747],[-93.530936,30.924534],[-93.540354,31.008135],[-93.527644,31.074509],[-93.531744,31.180817],[-93.535097,31.185614],[-93.548931,31.186601],[-93.55254,31.185605],[-93.552649,31.185575],[-93.579215,31.167422],[-93.588503,31.165581],[-93.598828,31.174679],[-93.599705,31.176456],[-93.602315,31.181742],[-93.607243,31.204806],[-93.608158,31.227835],[-93.614402,31.260869],[-93.620829,31.271299],[-93.644407,31.27711],[-93.671676,31.299586],[-93.640805,31.372546],[-93.670182,31.387184],[-93.695866,31.409392],[-93.729613,31.487922],[-93.798087,31.534044],[-93.818582,31.554826],[-93.834923,31.58621],[-93.834924,31.586211],[-93.82629,31.614903],[-93.817059,31.671694],[-93.812477,31.715246],[-93.840029,31.800596],[-93.878225,31.844276],[-93.889193,31.856819],[-93.92029,31.888651],[-93.932135,31.893672],[-93.975377,31.92366],[-94.01563,31.979856],[-94.04272,31.999265],[-94.0427,32.056012],[-94.042337,32.119914],[-94.042681,32.137956],[-94.042591,32.158097],[-94.042539,32.166826],[-94.042566,32.166894],[-94.042621,32.196005],[-94.042662,32.218146],[-94.042732,32.26962],[-94.042733,32.269696],[-94.042739,32.363559],[-94.042763,32.373332],[-94.042901,32.392283],[-94.042923,32.399918],[-94.042899,32.400659],[-94.042986,32.435507],[-94.042908,32.439891],[-94.042903,32.470386],[-94.042875,32.471348],[-94.042902,32.472906],[-94.042995,32.478004],[-94.042955,32.480261],[-94.043072,32.4843],[-94.043089,32.486561],[-94.042911,32.492852],[-94.042885,32.505145],[-94.043081,32.513613],[-94.043142,32.559502],[-94.043083,32.564261],[-94.042919,32.610142],[-94.042929,32.61826],[-94.042926,32.622015],[-94.042824,32.640305],[-94.04278,32.643466],[-94.042913,32.655127],[-94.043147,32.69303]]]],"type":"MultiPolygon"}},{"_id":"texas","type":"Feature","properties":{"name":"Texas","abbreviation":"TX","capital":"Austin","city":"Houston","population":26448193,"area":695660,"waterarea":19075,"landarea":676588,"houseseats":36,"statehood":"1845-12-29","group":"US States"},"geometry":{"coordinates":[[[[-96.83003,28.111842],[-96.827049,28.112417],[-96.816574,28.119618],[-96.81042,28.126034],[-96.810944,28.136378],[-96.816836,28.158048],[-96.820315,28.163494],[-96.822859,28.167476],[-96.818656,28.17228],[-96.816443,28.174808],[-96.791958,28.188687],[-96.733037,28.190913],[-96.703838,28.198246],[-96.697422,28.202959],[-96.702659,28.211208],[-96.703314,28.216446],[-96.686816,28.21841],[-96.662462,28.227314],[-96.660628,28.228885],[-96.663116,28.233206],[-96.651856,28.251275],[-96.607992,28.27707],[-96.608123,28.280081],[-96.611527,28.281391],[-96.61048,28.283093],[-96.592934,28.296972],[-96.581019,28.30221],[-96.55326,28.302341],[-96.546975,28.305614],[-96.542131,28.315958],[-96.528906,28.322505],[-96.476269,28.330754],[-96.450998,28.337039],[-96.434108,28.344764],[-96.418919,28.354846],[-96.415253,28.362833],[-96.417217,28.367154],[-96.412896,28.369511],[-96.403206,28.371475],[-96.401242,28.366892],[-96.397846,28.343513],[-96.4137,28.327343],[-96.439099,28.319052],[-96.547774,28.270798],[-96.621534,28.2297],[-96.694666,28.18212],[-96.758141,28.136873],[-96.849624,28.064939],[-96.853455,28.061345],[-96.929053,27.99044],[-96.966996,27.950531],[-97.001441,27.911442],[-97.03166,27.869975],[-97.041799,27.852926],[-97.045409,27.837452],[-97.04598,27.835004],[-97.085395,27.793245],[-97.116277,27.752599],[-97.166682,27.676583],[-97.201866,27.614858],[-97.221912,27.576315],[-97.276091,27.472145],[-97.30447,27.407734],[-97.326523,27.347612],[-97.347438,27.277963],[-97.350398,27.268105],[-97.363401,27.210366],[-97.370941,27.161166],[-97.377001,27.101021],[-97.37913,27.047996],[-97.378362,26.992877],[-97.370731,26.909706],[-97.364726,26.871693],[-97.351413,26.808604],[-97.333028,26.736479],[-97.30069,26.635375],[-97.287885,26.600341],[-97.275119,26.565415],[-97.269392,26.554046],[-97.229844,26.433569],[-97.223728,26.411492],[-97.194644,26.306513],[-97.185844,26.267103],[-97.173265,26.192314],[-97.161471,26.088705],[-97.154271,26.066841],[-97.161462,26.06764],[-97.169842,26.077853],[-97.171781,26.102522],[-97.179532,26.146202],[-97.178746,26.177103],[-97.183983,26.214289],[-97.194458,26.27164],[-97.214885,26.353606],[-97.226931,26.385555],[-97.240286,26.405981],[-97.240849,26.411504],[-97.243167,26.434263],[-97.247619,26.456261],[-97.254166,26.471188],[-97.262546,26.482972],[-97.276425,26.521729],[-97.292399,26.528014],[-97.31073,26.556558],[-97.308112,26.571223],[-97.308635,26.576723],[-97.317015,26.597673],[-97.318458,26.60027],[-97.324872,26.611814],[-97.338489,26.647429],[-97.336394,26.666022],[-97.345822,26.700589],[-97.363105,26.71054],[-97.370438,26.723896],[-97.370961,26.736204],[-97.367557,26.740394],[-97.364153,26.758987],[-97.364646,26.767122],[-97.368866,26.774699],[-97.370438,26.781508],[-97.368343,26.795649],[-97.373056,26.808481],[-97.387459,26.820789],[-97.383531,26.875521],[-97.385626,26.888876],[-97.391649,26.90197],[-97.389554,26.945965],[-97.39034,27.052286],[-97.389816,27.067213],[-97.386412,27.083187],[-97.387459,27.090519],[-97.390602,27.094186],[-97.390078,27.156512],[-97.377508,27.199459],[-97.379865,27.202863],[-97.386674,27.204696],[-97.382222,27.229051],[-97.37489,27.250262],[-97.373318,27.27645],[-97.372861,27.278069],[-97.367033,27.298709],[-97.364676,27.302637],[-97.359963,27.304732],[-97.357606,27.307875],[-97.36232,27.32673],[-97.366771,27.333276],[-97.361796,27.359988],[-97.346607,27.390365],[-97.336132,27.402411],[-97.331157,27.412362],[-97.329585,27.418124],[-97.330895,27.425456],[-97.329847,27.43436],[-97.317277,27.46369],[-97.293709,27.497209],[-97.282972,27.521564],[-97.266474,27.542514],[-97.257832,27.556393],[-97.26176,27.563464],[-97.260451,27.567392],[-97.252071,27.578652],[-97.247877,27.581366],[-97.247619,27.581533],[-97.236882,27.598293],[-97.241072,27.602483],[-97.242643,27.607458],[-97.231383,27.632336],[-97.221955,27.63286],[-97.219075,27.630241],[-97.214099,27.631551],[-97.200743,27.650144],[-97.197339,27.664547],[-97.197601,27.678426],[-97.203474,27.684533],[-97.203089,27.688001],[-97.190007,27.692829],[-97.170628,27.720326],[-97.166176,27.732372],[-97.1612,27.734074],[-97.153606,27.733289],[-97.147321,27.735384],[-97.130823,27.75162],[-97.127942,27.75581],[-97.127681,27.76],[-97.103326,27.789068],[-97.102279,27.798233],[-97.098874,27.808447],[-97.092851,27.81447],[-97.092589,27.819183],[-97.098874,27.82285],[-97.126109,27.819707],[-97.130299,27.820493],[-97.134489,27.825206],[-97.132394,27.827301],[-97.056713,27.842294],[-97.055823,27.843404],[-97.043226,27.859119],[-97.013634,27.90678],[-97.017955,27.911494],[-97.016384,27.917255],[-96.985745,27.954048],[-96.977889,27.976439],[-96.978805,27.978272],[-96.9809,27.978272],[-96.986007,27.976177],[-96.986661,27.980759],[-96.978282,28.001709],[-96.967807,28.020041],[-96.966759,28.020368],[-96.965188,28.013297],[-96.962569,28.012381],[-96.952618,28.01644],[-96.946988,28.026522],[-96.932454,28.035426],[-96.92643,28.043413],[-96.929573,28.0514],[-96.927085,28.057292],[-96.906004,28.076147],[-96.890947,28.076802],[-96.886233,28.084396],[-96.888328,28.086622],[-96.889113,28.099454],[-96.886887,28.11713],[-96.879424,28.131402],[-96.874972,28.133236],[-96.870782,28.131271],[-96.864628,28.126296],[-96.857165,28.115559],[-96.84538,28.108881],[-96.83003,28.111842]]],[[[-100.000381,34.746461],[-100.000381,34.746358],[-100.000381,34.560509],[-99.997853,34.561485],[-99.954567,34.578195],[-99.94572,34.579273],[-99.923211,34.574552],[-99.884842,34.546953],[-99.874403,34.537095],[-99.872357,34.532096],[-99.864922,34.523018],[-99.846399,34.505045],[-99.793684,34.453894],[-99.767234,34.430502],[-99.69497,34.378333],[-99.663948,34.37368],[-99.616793,34.375391],[-99.58006,34.416653],[-99.574367,34.418281],[-99.515385,34.414333],[-99.499875,34.409608],[-99.474161,34.398052],[-99.453477,34.388756],[-99.44076,34.374123],[-99.407168,34.372605],[-99.398635,34.375832],[-99.356713,34.442144],[-99.261321,34.403499],[-99.211423,34.337897],[-99.211396,34.337688],[-99.209724,34.324935],[-99.2116,34.31397],[-99.211648,34.292232],[-99.19089,34.215251],[-99.157114,34.207414],[-99.119204,34.201747],[-99.060344,34.204761],[-98.966743,34.201185],[-98.952527,34.195621],[-98.920042,34.182908],[-98.858419,34.152732],[-98.76557,34.136376],[-98.700182,34.135995],[-98.665824,34.151617],[-98.652347,34.161029],[-98.637575,34.162284],[-98.610112,34.161039],[-98.599789,34.160571],[-98.577356,34.1491],[-98.553717,34.13366],[-98.504182,34.072371],[-98.475066,34.064269],[-98.433769,34.096116],[-98.400494,34.121778],[-98.398441,34.128456],[-98.383222,34.147806],[-98.364023,34.157109],[-98.325445,34.151025],[-98.300209,34.134579],[-98.293901,34.13302],[-98.200075,34.116783],[-98.16912,34.114171],[-98.106261,34.033696],[-98.088203,34.005481],[-98.08526,34.003259],[-98.041117,33.993456],[-98.019485,33.993804],[-97.983521,34.001559],[-97.94573,33.989839],[-97.953395,33.936445],[-97.977859,33.889929],[-97.97781,33.889894],[-97.966706,33.881949],[-97.877387,33.850236],[-97.865765,33.849393],[-97.834333,33.857671],[-97.785317,33.890701],[-97.733723,33.936392],[-97.700477,33.972246],[-97.69311,33.983699],[-97.688023,33.986607],[-97.671772,33.99137],[-97.65621,33.989488],[-97.609091,33.968093],[-97.589598,33.953554],[-97.588828,33.951882],[-97.597115,33.917868],[-97.596289,33.913769],[-97.587441,33.902479],[-97.581041,33.900396],[-97.561054,33.898006],[-97.555002,33.897282],[-97.545526,33.900396],[-97.519171,33.913638],[-97.50096,33.919643],[-97.486505,33.916994],[-97.484071,33.91568],[-97.458069,33.901635],[-97.450954,33.891398],[-97.451469,33.87093],[-97.457617,33.855126],[-97.461486,33.84956],[-97.462857,33.841772],[-97.459068,33.834581],[-97.453057,33.828536],[-97.444193,33.823773],[-97.426493,33.819398],[-97.372941,33.819454],[-97.310843,33.872461],[-97.226522,33.914642],[-97.210921,33.916064],[-97.185458,33.9007],[-97.180845,33.895204],[-97.166629,33.847311],[-97.166824,33.840395],[-97.171627,33.835335],[-97.18137,33.831375],[-97.194678,33.831192],[-97.1997,33.827322],[-97.204995,33.81887],[-97.204827,33.799908],[-97.172192,33.737545],[-97.163149,33.729322],[-97.162803,33.729127],[-97.151257,33.722608],[-97.13753,33.718664],[-97.121102,33.717174],[-97.107183,33.721119],[-97.097154,33.727809],[-97.092414,33.733214],[-97.047972,33.817931],[-97.00613,33.861884],[-96.985567,33.886522],[-96.97287,33.935698],[-96.944611,33.948994],[-96.934508,33.953748],[-96.922114,33.959579],[-96.9163,33.957798],[-96.907387,33.950025],[-96.899442,33.933728],[-96.895728,33.896414],[-96.88301,33.868019],[-96.866438,33.853149],[-96.85609,33.84749],[-96.761588,33.824406],[-96.712422,33.831633],[-96.707274,33.835398],[-96.700952,33.840748],[-96.694629,33.849988],[-96.68928,33.86166],[-96.685389,33.872846],[-96.682471,33.883059],[-96.67858,33.892786],[-96.672258,33.899595],[-96.65864,33.900081],[-96.646968,33.895218],[-96.633351,33.889382],[-96.622165,33.885977],[-96.615356,33.881114],[-96.613494,33.878321],[-96.611466,33.875278],[-96.612963,33.867651],[-96.615843,33.853393],[-96.61487,33.841234],[-96.612925,33.833939],[-96.500268,33.772583],[-96.448045,33.781031],[-96.436455,33.78005],[-96.423362,33.776365],[-96.378473,33.726648],[-96.36959,33.716809],[-96.304675,33.745901],[-96.229859,33.74832],[-96.220521,33.74739],[-96.1999,33.752117],[-96.181704,33.758504],[-96.170055,33.76917],[-96.1641,33.784261],[-96.156717,33.813324],[-96.14807,33.837799],[-96.097526,33.847544],[-95.949935,33.857452],[-95.846334,33.841136],[-95.82468,33.837726],[-95.763622,33.847954],[-95.757156,33.867293],[-95.599678,33.934247],[-95.567022,33.932697],[-95.559414,33.930179],[-95.549145,33.90795],[-95.549475,33.901311],[-95.552331,33.89442],[-95.552085,33.888422],[-95.548325,33.882744],[-95.544346,33.880111],[-95.445751,33.86885],[-95.407795,33.866308],[-95.339758,33.868752],[-95.310475,33.871481],[-95.287565,33.873617],[-95.260815,33.887653],[-95.255541,33.892047],[-95.249922,33.902024],[-95.2482,33.912327],[-95.249807,33.922241],[-95.253623,33.92971],[-95.252906,33.933648],[-95.231113,33.960361],[-95.226393,33.961954],[-95.219358,33.961567],[-95.155981,33.944027],[-95.129572,33.936718],[-95.067253,33.917351],[-95.063459,33.91404],[-95.062284,33.903618],[-95.039452,33.860621],[-94.8693,33.745871],[-94.822473,33.732716],[-94.760604,33.727054],[-94.746096,33.703016],[-94.735128,33.691267],[-94.660964,33.660322],[-94.52838,33.615995],[-94.524055,33.615765],[-94.490684,33.625586],[-94.487611,33.628544],[-94.485875,33.637867],[-94.478366,33.620847],[-94.470963,33.60594],[-94.464336,33.598819],[-94.409329,33.568265],[-94.355945,33.54318],[-94.257801,33.582508],[-94.252656,33.586144],[-94.181805,33.593217],[-94.085243,33.575546],[-94.066846,33.568909],[-94.04345,33.552253],[-94.043428,33.551425],[-94.043375,33.542315],[-94.043009,33.493039],[-94.043279,33.49103],[-94.043188,33.470324],[-94.042988,33.435824],[-94.042988,33.431024],[-94.042887,33.420225],[-94.043053,33.377716],[-94.042869,33.37117],[-94.043128,33.358757],[-94.043067,33.352097],[-94.043067,33.347351],[-94.043067,33.330498],[-94.04299,33.271243],[-94.04299,33.271227],[-94.04305,33.260904],[-94.043004,33.250128],[-94.04273,33.241823],[-94.042876,33.215219],[-94.042892,33.202666],[-94.042875,33.199785],[-94.043185,33.143476],[-94.043077,33.138162],[-94.043007,33.13389],[-94.04287,33.092727],[-94.043036,33.079485],[-94.042964,33.019219],[-94.043088,32.955592],[-94.043067,32.937903],[-94.043092,32.910021],[-94.042885,32.898911],[-94.042859,32.892771],[-94.042886,32.881089],[-94.042886,32.880965],[-94.043025,32.880446],[-94.042785,32.871486],[-94.043026,32.797476],[-94.042747,32.786973],[-94.042829,32.785277],[-94.042938,32.780558],[-94.043027,32.776863],[-94.042947,32.767991],[-94.043147,32.693031],[-94.043147,32.69303],[-94.042913,32.655127],[-94.04278,32.643466],[-94.042824,32.640305],[-94.042926,32.622015],[-94.042929,32.61826],[-94.042919,32.610142],[-94.043083,32.564261],[-94.043142,32.559502],[-94.043081,32.513613],[-94.042885,32.505145],[-94.042911,32.492852],[-94.043089,32.486561],[-94.043072,32.4843],[-94.042955,32.480261],[-94.042995,32.478004],[-94.042902,32.472906],[-94.042875,32.471348],[-94.042903,32.470386],[-94.042908,32.439891],[-94.042986,32.435507],[-94.042899,32.400659],[-94.042923,32.399918],[-94.042901,32.392283],[-94.042763,32.373332],[-94.042739,32.363559],[-94.042733,32.269696],[-94.042732,32.26962],[-94.042662,32.218146],[-94.042621,32.196005],[-94.042566,32.166894],[-94.042539,32.166826],[-94.042591,32.158097],[-94.042681,32.137956],[-94.042337,32.119914],[-94.0427,32.056012],[-94.04272,31.999265],[-94.01563,31.979856],[-93.975377,31.92366],[-93.932135,31.893672],[-93.92029,31.888651],[-93.889193,31.856819],[-93.878225,31.844276],[-93.840029,31.800596],[-93.812477,31.715246],[-93.817059,31.671694],[-93.82629,31.614903],[-93.834924,31.586211],[-93.834923,31.58621],[-93.818582,31.554826],[-93.798087,31.534044],[-93.729613,31.487922],[-93.695866,31.409392],[-93.670182,31.387184],[-93.640805,31.372546],[-93.671676,31.299586],[-93.644407,31.27711],[-93.620829,31.271299],[-93.614402,31.260869],[-93.608158,31.227835],[-93.607243,31.204806],[-93.602315,31.181742],[-93.599705,31.176456],[-93.598828,31.174679],[-93.588503,31.165581],[-93.579215,31.167422],[-93.552649,31.185575],[-93.55254,31.185605],[-93.548931,31.186601],[-93.535097,31.185614],[-93.531744,31.180817],[-93.527644,31.074509],[-93.540354,31.008135],[-93.530936,30.924534],[-93.554576,30.87747],[-93.55497,30.876685],[-93.558617,30.869424],[-93.558672,30.868829],[-93.563292,30.818503],[-93.578395,30.802047],[-93.727844,30.57407],[-93.740045,30.538765],[-93.710117,30.5064],[-93.697828,30.443838],[-93.698302,30.438657],[-93.702665,30.429947],[-93.741701,30.403007],[-93.751437,30.396288],[-93.757654,30.390423],[-93.765822,30.333318],[-93.735896,30.29944],[-93.723586,30.294951],[-93.720575,30.295961],[-93.716223,30.244318],[-93.712008,30.194304],[-93.695252,30.1476],[-93.695684,30.135729],[-93.712101,30.067346],[-93.721589,30.051939],[-93.722481,30.050898],[-93.752038,30.016403],[-93.75663,30.014163],[-93.789431,29.987812],[-93.840799,29.914423],[-93.890679,29.843159],[-93.89847,29.771577],[-93.892246,29.765241],[-93.837971,29.690619],[-93.852868,29.675885],[-93.866981,29.673085],[-93.88999,29.674013],[-93.931,29.679612],[-94.001406,29.681486],[-94.056506,29.671163],[-94.132577,29.646217],[-94.354163,29.561459],[-94.370866,29.55507],[-94.500807,29.505367],[-94.594853,29.467903],[-94.631084,29.451464],[-94.670389,29.43078],[-94.694158,29.415632],[-94.708473,29.403049],[-94.723959,29.383268],[-94.731047,29.369141],[-94.744834,29.369158],[-94.761491,29.361883],[-94.778691,29.361483],[-94.782356,29.364266],[-94.783131,29.375642],[-94.766848,29.393489],[-94.7541,29.401],[-94.723818,29.426536],[-94.706365,29.436805],[-94.686386,29.466509],[-94.681541,29.471389],[-94.6724,29.476843],[-94.665853,29.478401],[-94.656737,29.478033],[-94.645948,29.473769],[-94.628217,29.475986],[-94.608557,29.483345],[-94.594211,29.492127],[-94.59544,29.507669],[-94.591407,29.513858],[-94.580274,29.525295],[-94.566674,29.531988],[-94.55399,29.529559],[-94.546994,29.524379],[-94.532348,29.5178],[-94.511045,29.51965],[-94.495025,29.525031],[-94.503429,29.54325],[-94.509487,29.54259],[-94.511086,29.542971],[-94.522421,29.545672],[-94.523743,29.545987],[-94.526336,29.552634],[-94.532021,29.558379],[-94.541108,29.567561],[-94.542532,29.569],[-94.546385,29.572048],[-94.553988,29.573882],[-94.570006,29.572232],[-94.570593,29.571878],[-94.570867,29.571713],[-94.578211,29.567281],[-94.593518,29.561319],[-94.610147,29.556947],[-94.618028,29.554875],[-94.621819,29.553878],[-94.621953,29.553843],[-94.62589,29.552808],[-94.682706,29.539825],[-94.689353,29.538306],[-94.691625,29.537787],[-94.718276,29.533547],[-94.740699,29.525858],[-94.755514,29.524776],[-94.757689,29.524617],[-94.757788,29.524626],[-94.757883,29.524635],[-94.767246,29.525523],[-94.768676,29.525659],[-94.769418,29.525988],[-94.769573,29.526057],[-94.77084,29.526618],[-94.774571,29.528271],[-94.774798,29.528372],[-94.779674,29.530533],[-94.779708,29.530548],[-94.779831,29.530602],[-94.780938,29.531093],[-94.783296,29.535314],[-94.784034,29.536635],[-94.786512,29.541073],[-94.786649,29.541319],[-94.78954,29.546494],[-94.790605,29.548401],[-94.779439,29.549472],[-94.771053,29.548439],[-94.755237,29.562782],[-94.734626,29.584046],[-94.708741,29.625226],[-94.693154,29.694453],[-94.692434,29.70361],[-94.695317,29.723052],[-94.724616,29.774766],[-94.735271,29.785433],[-94.740919,29.787081],[-94.771512,29.773889],[-94.792238,29.767433],[-94.816085,29.75671],[-94.851108,29.721373],[-94.865007,29.695337],[-94.867438,29.678768],[-94.872551,29.67125],[-94.893107,29.661336],[-94.915413,29.656614],[-94.921318,29.658178],[-94.931154,29.673874],[-94.934167,29.678682],[-94.936089,29.692704],[-94.942681,29.697778],[-94.965963,29.70033],[-94.972666,29.68487],[-94.988924,29.672202],[-95.005398,29.659366],[-95.005648,29.658985],[-95.006381,29.657871],[-95.007623,29.65598],[-95.011025,29.650803],[-95.011683,29.649802],[-95.01272,29.647088],[-95.013777,29.644322],[-95.015636,29.639457],[-95.0156,29.639285],[-95.013623,29.62979],[-95.013499,29.629194],[-95.01166,29.627768],[-95.000781,29.619331],[-95.00046,29.619082],[-94.999481,29.618323],[-94.999082,29.618014],[-94.988871,29.610095],[-94.984831,29.604361],[-94.982936,29.60167],[-94.982706,29.601344],[-94.982855,29.601103],[-94.982923,29.600992],[-94.988993,29.591155],[-95.00767,29.574257],[-95.016145,29.559336],[-95.016353,29.55897],[-95.016627,29.558487],[-95.016672,29.558388],[-95.018253,29.554885],[-95.018198,29.554618],[-95.018191,29.554584],[-95.016889,29.548303],[-95.015165,29.539989],[-95.013378,29.537822],[-94.999581,29.521093],[-94.981916,29.511141],[-94.958443,29.505013],[-94.934876,29.501079],[-94.933483,29.500847],[-94.933039,29.500773],[-94.909898,29.49691],[-94.909465,29.496838],[-94.913385,29.487254],[-94.925914,29.469047],[-94.930861,29.450504],[-94.919401,29.448031],[-94.8908,29.433432],[-94.8873,29.415132],[-94.886536,29.366386],[-94.894234,29.338],[-94.893994,29.30817],[-94.886536,29.297826],[-94.875952,29.293015],[-94.865126,29.293977],[-94.84973,29.297345],[-94.824953,29.306005],[-94.822547,29.321882],[-94.822307,29.344254],[-94.810696,29.353435],[-94.784895,29.335535],[-94.779995,29.334935],[-94.777064,29.336811],[-94.745529,29.334235],[-94.744945,29.33641],[-94.73132,29.338066],[-94.72253,29.331446],[-94.731082,29.331833],[-94.769695,29.304936],[-94.786095,29.290737],[-94.803695,29.279237],[-95.026219,29.148064],[-95.081773,29.111222],[-95.110484,29.088224],[-95.119271,29.077844],[-95.122525,29.074],[-95.125134,29.067321],[-95.191391,29.02309],[-95.238924,28.988644],[-95.272266,28.961546],[-95.297147,28.934073],[-95.309704,28.928262],[-95.353451,28.898145],[-95.376979,28.87616],[-95.38239,28.866348],[-95.416174,28.859482],[-95.439594,28.859022],[-95.486769,28.836287],[-95.507041,28.824755],[-95.568136,28.789998],[-95.812504,28.664942],[-95.884026,28.633098],[-96.000682,28.588238],[-96.077868,28.556626],[-96.194412,28.502224],[-96.220376,28.491966],[-96.244751,28.475055],[-96.270391,28.46193],[-96.303212,28.441871],[-96.32156,28.425148],[-96.328817,28.423659],[-96.341617,28.417334],[-96.371117,28.397661],[-96.372101,28.393875],[-96.370717,28.387667],[-96.378616,28.383909],[-96.379372,28.386089],[-96.381864,28.393276],[-96.37596,28.401682],[-96.374138,28.404275],[-96.335119,28.437795],[-96.268341,28.477992],[-96.223825,28.495067],[-96.218978,28.500383],[-96.21505,28.509679],[-96.145448,28.544741],[-96.104735,28.559499],[-96.046211,28.58698],[-96.032979,28.589016],[-96.007534,28.599703],[-95.98616,28.606319],[-95.982088,28.614461],[-95.985651,28.621077],[-95.983106,28.641942],[-95.978526,28.650594],[-95.986066,28.655468],[-95.996338,28.658736],[-96.002954,28.656192],[-96.006516,28.648049],[-96.033488,28.652629],[-96.047737,28.649067],[-96.072165,28.635326],[-96.099137,28.624639],[-96.148501,28.611408],[-96.187178,28.593596],[-96.198374,28.58698],[-96.221784,28.580364],[-96.228909,28.580873],[-96.233998,28.596649],[-96.233998,28.601738],[-96.222293,28.607336],[-96.21415,28.613443],[-96.212624,28.622604],[-96.230944,28.641433],[-96.208552,28.662298],[-96.214659,28.665352],[-96.192267,28.687744],[-96.19125,28.69436],[-96.19583,28.69894],[-96.202446,28.700976],[-96.222802,28.698431],[-96.231453,28.696395],[-96.256899,28.68469],[-96.263515,28.683673],[-96.268604,28.688762],[-96.287942,28.683164],[-96.304227,28.671459],[-96.305245,28.660263],[-96.303718,28.644996],[-96.322921,28.64186],[-96.328655,28.640924],[-96.373439,28.626675],[-96.376492,28.620059],[-96.384635,28.615988],[-96.473694,28.57324],[-96.487943,28.569677],[-96.482854,28.580364],[-96.480309,28.596649],[-96.485907,28.607845],[-96.490488,28.610899],[-96.510844,28.61497],[-96.510335,28.617515],[-96.497612,28.625148],[-96.496595,28.630746],[-96.499648,28.635835],[-96.506264,28.63838],[-96.54545,28.645505],[-96.555119,28.646013],[-96.563262,28.644487],[-96.572931,28.667897],[-96.570386,28.674003],[-96.55919,28.687235],[-96.559699,28.691306],[-96.561226,28.696395],[-96.566824,28.697922],[-96.575141,28.702837],[-96.577727,28.704365],[-96.57802,28.704538],[-96.579639,28.712312],[-96.579669,28.712455],[-96.580564,28.716752],[-96.584091,28.722798],[-96.584127,28.722859],[-96.584196,28.722877],[-96.591647,28.724838],[-96.593796,28.725403],[-96.604921,28.72221],[-96.634419,28.713743],[-96.634912,28.713601],[-96.645867,28.710457],[-96.648758,28.709627],[-96.655528,28.704167],[-96.664534,28.696904],[-96.657918,28.687744],[-96.635018,28.668914],[-96.634,28.654665],[-96.627893,28.650085],[-96.623313,28.649576],[-96.615679,28.644487],[-96.61059,28.638889],[-96.61059,28.636344],[-96.61975,28.627693],[-96.622804,28.622095],[-96.611099,28.585962],[-96.608045,28.583418],[-96.573949,28.584436],[-96.565297,28.5824],[-96.564279,28.576293],[-96.561226,28.570695],[-96.536289,28.559499],[-96.526111,28.557972],[-96.52204,28.55441],[-96.514406,28.535071],[-96.505755,28.525911],[-96.450284,28.490796],[-96.419749,28.467387],[-96.410589,28.459244],[-96.402446,28.449066],[-96.403973,28.44245],[-96.46148,28.421585],[-96.481836,28.407844],[-96.504737,28.397666],[-96.520513,28.394104],[-96.542905,28.385452],[-96.559699,28.377819],[-96.570386,28.368658],[-96.59176,28.357462],[-96.600412,28.354409],[-96.650794,28.346775],[-96.672677,28.335579],[-96.688453,28.347284],[-96.69456,28.347284],[-96.698122,28.342704],[-96.705247,28.348811],[-96.700158,28.369676],[-96.705756,28.400211],[-96.710336,28.406827],[-96.72255,28.408862],[-96.749013,28.408862],[-96.762245,28.411916],[-96.76696,28.410737],[-96.768352,28.410389],[-96.772209,28.408074],[-96.775985,28.405809],[-96.780796,28.398421],[-96.790235,28.383926],[-96.794554,28.365688],[-96.794796,28.364668],[-96.794815,28.364587],[-96.794812,28.364515],[-96.794812,28.364503],[-96.794357,28.350865],[-96.794306,28.34932],[-96.794016,28.347249],[-96.793926,28.346606],[-96.793835,28.345959],[-96.793765,28.345453],[-96.79254,28.336705],[-96.790744,28.323874],[-96.791159,28.319095],[-96.791761,28.31217],[-96.806011,28.296902],[-96.809573,28.290287],[-96.806011,28.282144],[-96.799302,28.272716],[-96.787181,28.255681],[-96.787181,28.250083],[-96.800413,28.224128],[-96.810037,28.217086],[-96.842143,28.193594],[-96.872678,28.176291],[-96.898123,28.152881],[-96.910337,28.147283],[-96.934765,28.123873],[-96.962755,28.123365],[-97.000414,28.137614],[-97.007539,28.136087],[-97.027386,28.124382],[-97.028913,28.117258],[-97.022806,28.107588],[-97.023824,28.103517],[-97.031966,28.093848],[-97.035528,28.084688],[-97.035528,28.074],[-97.031457,28.053644],[-97.025859,28.041939],[-97.030948,28.033288],[-97.040618,28.028708],[-97.04876,28.022092],[-97.061992,27.996138],[-97.075732,27.986977],[-97.121534,27.923364],[-97.129168,27.919801],[-97.134801,27.902467],[-97.135783,27.899445],[-97.136615,27.898956],[-97.144435,27.894356],[-97.155122,27.880615],[-97.183455,27.833231],[-97.184639,27.831251],[-97.186709,27.825453],[-97.186871,27.825001],[-97.187183,27.824126],[-97.188866,27.823772],[-97.192874,27.822928],[-97.193701,27.822754],[-97.196852,27.822091],[-97.209127,27.822091],[-97.209575,27.822091],[-97.211226,27.822391],[-97.219738,27.823939],[-97.220771,27.824126],[-97.222212,27.824649],[-97.222957,27.824919],[-97.225176,27.825723],[-97.225435,27.826145],[-97.225811,27.826755],[-97.226012,27.827083],[-97.227317,27.829204],[-97.227317,27.830939],[-97.227317,27.831258],[-97.227317,27.832895],[-97.227317,27.832952],[-97.226514,27.838307],[-97.228388,27.843661],[-97.234512,27.849063],[-97.241127,27.857714],[-97.241393,27.858953],[-97.242654,27.864839],[-97.242922,27.865208],[-97.250797,27.876035],[-97.256394,27.877901],[-97.258305,27.878538],[-97.26301,27.880106],[-97.272253,27.881427],[-97.273698,27.881633],[-97.276632,27.881144],[-97.285466,27.879672],[-97.295072,27.878071],[-97.301455,27.875907],[-97.317892,27.870335],[-97.325097,27.867893],[-97.327494,27.866405],[-97.354614,27.849572],[-97.360212,27.85059],[-97.360547,27.850363],[-97.361246,27.849891],[-97.379042,27.837867],[-97.391764,27.813948],[-97.393291,27.782905],[-97.386166,27.76662],[-97.368355,27.741683],[-97.34698,27.725398],[-97.316446,27.712676],[-97.253955,27.696696],[-97.259957,27.679597],[-97.266064,27.678579],[-97.296598,27.613947],[-97.298634,27.604787],[-97.297616,27.59868],[-97.294054,27.5941],[-97.302196,27.585957],[-97.321535,27.571199],[-97.325118,27.560927],[-97.336802,27.527433],[-97.343418,27.517764],[-97.347489,27.503005],[-97.350543,27.478578],[-97.359194,27.458221],[-97.36581,27.450588],[-97.371917,27.425142],[-97.369881,27.41242],[-97.372935,27.401224],[-97.37955,27.390028],[-97.399398,27.344735],[-97.401942,27.335574],[-97.404996,27.329977],[-97.413138,27.321325],[-97.420263,27.317254],[-97.430441,27.313691],[-97.450798,27.313691],[-97.482859,27.297915],[-97.508304,27.275014],[-97.532223,27.278577],[-97.544437,27.284175],[-97.546981,27.290791],[-97.536803,27.289264],[-97.526625,27.291808],[-97.524589,27.297915],[-97.517465,27.30504],[-97.504742,27.30504],[-97.498126,27.308602],[-97.502706,27.322343],[-97.499144,27.327941],[-97.483877,27.338628],[-97.483877,27.351351],[-97.48693,27.358984],[-97.501688,27.366618],[-97.514411,27.361529],[-97.520518,27.352877],[-97.53833,27.335574],[-97.5709,27.315727],[-97.584132,27.30962],[-97.609068,27.285193],[-97.621791,27.287228],[-97.63146,27.28621],[-97.636549,27.282139],[-97.63668,27.281727],[-97.640111,27.270943],[-97.639094,27.253131],[-97.635022,27.247024],[-97.628916,27.242953],[-97.597363,27.242444],[-97.582605,27.240409],[-97.573953,27.238882],[-97.561231,27.232775],[-97.54291,27.229213],[-97.520009,27.231248],[-97.509831,27.23532],[-97.503215,27.2399],[-97.500162,27.24448],[-97.485149,27.250841],[-97.467083,27.25364],[-97.458431,27.259493],[-97.450289,27.262546],[-97.42408,27.264073],[-97.422299,27.257712],[-97.434767,27.202241],[-97.444945,27.144734],[-97.443673,27.116235],[-97.452324,27.115217],[-97.455887,27.110383],[-97.45665,27.099695],[-97.461739,27.095624],[-97.47548,27.098423],[-97.480569,27.102494],[-97.49151,27.101222],[-97.495836,27.094098],[-97.493291,27.078067],[-97.477515,27.066108],[-97.479042,27.0628],[-97.482257,27.061942],[-97.48693,27.057711],[-97.487693,27.053639],[-97.486676,27.03481],[-97.477515,27.03252],[-97.473953,27.029212],[-97.473444,27.02285],[-97.478533,26.999186],[-97.480569,26.997659],[-97.484131,27.000458],[-97.536803,26.999695],[-97.549271,26.995878],[-97.555378,26.99028],[-97.551053,26.980865],[-97.549526,26.965344],[-97.552325,26.952112],[-97.555378,26.947277],[-97.555378,26.93888],[-97.540874,26.90631],[-97.540111,26.900967],[-97.547999,26.895114],[-97.552325,26.888499],[-97.552325,26.867633],[-97.558432,26.864325],[-97.563266,26.842188],[-97.552579,26.827938],[-97.547745,26.824631],[-97.537566,26.824885],[-97.509831,26.803511],[-97.484385,26.763562],[-97.478024,26.7572],[-97.471663,26.758727],[-97.468609,26.740915],[-97.467337,26.710126],[-97.444945,26.633535],[-97.445708,26.609362],[-97.441206,26.599901],[-97.428151,26.572466],[-97.416955,26.553637],[-97.422299,26.520303],[-97.425861,26.516741],[-97.430696,26.506563],[-97.430696,26.494603],[-97.42637,26.484425],[-97.429169,26.478064],[-97.43553,26.470176],[-97.441383,26.466614],[-97.441383,26.455418],[-97.437566,26.44982],[-97.425861,26.446003],[-97.421026,26.446766],[-97.41721,26.44982],[-97.411612,26.447275],[-97.412884,26.433026],[-97.42179,26.417249],[-97.4195,26.413178],[-97.406014,26.409107],[-97.398126,26.410888],[-97.394309,26.41445],[-97.395072,26.417249],[-97.382485,26.411326],[-97.377769,26.409107],[-97.369627,26.394603],[-97.374461,26.380862],[-97.388965,26.36585],[-97.392019,26.339386],[-97.391001,26.332262],[-97.387947,26.330481],[-97.376242,26.336333],[-97.372171,26.339895],[-97.369372,26.348547],[-97.358176,26.356435],[-97.343418,26.359234],[-97.335275,26.355672],[-97.330441,26.350582],[-97.336802,26.331753],[-97.352833,26.318521],[-97.354359,26.313941],[-97.34698,26.311396],[-97.347489,26.292821],[-97.343927,26.267376],[-97.341128,26.265595],[-97.331967,26.265595],[-97.322807,26.271956],[-97.311866,26.273737],[-97.307031,26.253126],[-97.308049,26.249055],[-97.32128,26.236078],[-97.32128,26.228699],[-97.304486,26.20249],[-97.296598,26.200709],[-97.294817,26.192312],[-97.296089,26.182388],[-97.306776,26.159487],[-97.296598,26.142439],[-97.28536,26.128378],[-97.282094,26.120301],[-97.283112,26.117757],[-97.294054,26.11394],[-97.295072,26.108342],[-97.279804,26.092057],[-97.270898,26.086459],[-97.24698,26.080352],[-97.208048,26.079589],[-97.199651,26.077044],[-97.195071,26.04193],[-97.204995,26.030225],[-97.214918,26.030734],[-97.224842,26.027426],[-97.226114,26.024372],[-97.219244,25.996128],[-97.216954,25.993838],[-97.208557,25.991802],[-97.195834,25.993074],[-97.17446,26.000072],[-97.167208,26.007069],[-97.162755,26.014576],[-97.162628,26.023482],[-97.172043,26.044729],[-97.178659,26.045492],[-97.18273,26.053126],[-97.164982,26.063876],[-97.152009,26.062108],[-97.15321,26.038906],[-97.151922,26.017653],[-97.145567,25.971132],[-97.172633,25.962883],[-97.228025,25.958936],[-97.271382,25.951832],[-97.348275,25.931143],[-97.362345,25.915724],[-97.367045,25.903021],[-97.366723,25.885066],[-97.408357,25.856459],[-97.496861,25.880058],[-97.511161,25.887458],[-97.582565,25.937857],[-97.668099,26.022522],[-97.671568,26.033955],[-97.863056,26.061273],[-97.888699,26.064931],[-98.008307,26.061147],[-98.011883,26.056608],[-98.044517,26.043746],[-98.132605,26.057507],[-98.241664,26.074544],[-98.264514,26.085507],[-98.386694,26.157872],[-98.438822,26.212022],[-98.466167,26.223245],[-98.58581,26.257403],[-98.58672,26.257456],[-98.623335,26.259592],[-98.6329,26.250348],[-98.705676,26.27748],[-98.751164,26.331307],[-98.807348,26.369421],[-98.822373,26.370902],[-98.861354,26.36599],[-99.047575,26.406922],[-99.105719,26.43872],[-99.167996,26.557799],[-99.172058,26.57086],[-99.208951,26.689489],[-99.242444,26.788262],[-99.268613,26.843213],[-99.321819,26.906846],[-99.379149,26.93449],[-99.446524,27.023008],[-99.452316,27.062669],[-99.451035,27.066765],[-99.446593,27.070593],[-99.429879,27.094323],[-99.426348,27.176262],[-99.441549,27.24992],[-99.452391,27.264046],[-99.453949,27.264673],[-99.463309,27.268437],[-99.47088,27.265444],[-99.494678,27.277595],[-99.529654,27.306051],[-99.536443,27.312538],[-99.537771,27.316073],[-99.50696,27.35642],[-99.492831,27.390491],[-99.487704,27.409924],[-99.480219,27.485796],[-99.519381,27.573569],[-99.541644,27.605772],[-99.600619,27.641314],[-99.623478,27.644136],[-99.626294,27.64245],[-99.627123,27.638412],[-99.666175,27.638324],[-99.843463,27.77456],[-99.876174,27.806276],[-99.901486,27.864162],[-99.904385,27.875284],[-99.895828,27.904178],[-99.922046,27.922119],[-99.991447,27.99456],[-100.057049,28.095656],[-100.080868,28.137192],[-100.083393,28.144035],[-100.088143,28.147503],[-100.14414,28.168238],[-100.171323,28.17623],[-100.202448,28.190554],[-100.209464,28.196866],[-100.257788,28.240341],[-100.291391,28.275398],[-100.346986,28.407232],[-100.333814,28.499252],[-100.338518,28.501833],[-100.386963,28.514023],[-100.405058,28.53578],[-100.429856,28.596441],[-100.446659,28.608659],[-100.500354,28.66196],[-100.510055,28.690723],[-100.511998,28.705352],[-100.506701,28.716745],[-100.507613,28.740599],[-100.535438,28.805195],[-100.546804,28.825374],[-100.589854,28.861618],[-100.640092,28.915833],[-100.651512,28.943432],[-100.648104,28.98386],[-100.645894,28.986421],[-100.664065,29.073206],[-100.668356,29.08397],[-100.674656,29.099777],[-100.793662,29.242146],[-100.797671,29.246943],[-100.954042,29.347598],[-100.995607,29.363403],[-101.037642,29.414681],[-101.043364,29.42988],[-101.060151,29.458661],[-101.087149,29.469414],[-101.137503,29.473542],[-101.235275,29.524854],[-101.247319,29.618482],[-101.250383,29.624171],[-101.314135,29.659054],[-101.343743,29.662047],[-101.403926,29.757587],[-101.455007,29.770188],[-101.625958,29.771063],[-101.635128,29.758675],[-101.646418,29.754304],[-101.761839,29.777187],[-101.786353,29.782047],[-101.883655,29.796193],[-101.944913,29.801468],[-102.040539,29.790061],[-102.050044,29.78507],[-102.116076,29.792527],[-102.262466,29.853765],[-102.282247,29.863598],[-102.297331,29.875194],[-102.320819,29.875193],[-102.323389,29.875193],[-102.364647,29.843624],[-102.386677,29.76148],[-102.404422,29.765105],[-102.434063,29.7767],[-102.486819,29.786725],[-102.500741,29.781446],[-102.554915,29.748966],[-102.612879,29.748182],[-102.665194,29.737421],[-102.689738,29.722349],[-102.698347,29.695591],[-102.745494,29.592967],[-102.781807,29.542454],[-102.808692,29.522319],[-102.831938,29.437943],[-102.83332,29.408981],[-102.875813,29.353715],[-102.895886,29.284778],[-102.886308,29.24568],[-102.881135,29.246022],[-102.871347,29.241625],[-102.866846,29.225015],[-102.87802,29.214698],[-102.95089,29.176835],[-102.995688,29.161219],[-103.10443,29.03359],[-103.115328,28.98527],[-103.156646,28.972831],[-103.163865,28.972099],[-103.281903,28.990089],[-103.383508,29.024112],[-103.471037,29.075368],[-103.470518,29.085108],[-103.503236,29.11911],[-103.525471,29.137744],[-103.558679,29.154962],[-103.61007,29.165727],[-103.627067,29.163336],[-103.714867,29.184137],[-103.767814,29.224954],[-103.792005,29.262695],[-103.792705,29.262931],[-103.838303,29.278304],[-103.924976,29.293913],[-103.963076,29.298404],[-104.025488,29.314404],[-104.143692,29.383278],[-104.167506,29.402928],[-104.21341,29.462069],[-104.235847,29.496744],[-104.264155,29.514001],[-104.290728,29.519326],[-104.321603,29.527923],[-104.394351,29.560535],[-104.515512,29.641493],[-104.538569,29.677396],[-104.549773,29.716091],[-104.549117,29.728814],[-104.566055,29.771379],[-104.633275,29.870485],[-104.667301,29.910401],[-104.674932,29.911112],[-104.679877,29.920946],[-104.693592,30.019077],[-104.685793,30.092656],[-104.687296,30.179464],[-104.708916,30.235826],[-104.761634,30.301148],[-104.78102,30.314564],[-104.859521,30.390413],[-104.872808,30.500145],[-104.929778,30.59924],[-104.972071,30.61026],[-104.985365,30.623792],[-105.044407,30.683895],[-105.129328,30.750139],[-105.211234,30.799609],[-105.250028,30.799068],[-105.265479,30.802536],[-105.394627,30.85892],[-105.411833,30.893367],[-105.55679,30.989469],[-105.57765,31.019811],[-105.579756,31.036588],[-105.585323,31.057488],[-105.60333,31.082625],[-105.648834,31.115902],[-105.709491,31.136375],[-105.750519,31.16494],[-105.793719,31.201713],[-105.869353,31.288634],[-105.900315,31.300008],[-105.923131,31.312089],[-105.981027,31.375122],[-105.997658,31.386489],[-106.00693,31.392826],[-106.099393,31.41476],[-106.132782,31.425367],[-106.202851,31.464073],[-106.206018,31.466648],[-106.207524,31.467872],[-106.2092,31.469234],[-106.212918,31.473409],[-106.218538,31.47972],[-106.254062,31.547512],[-106.356938,31.70221],[-106.381039,31.73211],[-106.41794,31.752009],[-106.436743,31.756872],[-106.472514,31.751802],[-106.528543,31.783907],[-106.528543,31.784407],[-106.527997,31.786945],[-106.527623,31.789119],[-106.527738,31.789761],[-106.527943,31.790507],[-106.530515,31.792103],[-106.53248,31.791914],[-106.533,31.791829],[-106.533043,31.791907],[-106.534743,31.796107],[-106.535154,31.797089],[-106.535343,31.797507],[-106.535843,31.798607],[-106.542097,31.802146],[-106.542144,31.802107],[-106.544714,31.804287],[-106.545344,31.805007],[-106.563444,31.812606],[-106.566844,31.813306],[-106.605245,31.845905],[-106.605845,31.846305],[-106.614637,31.84649],[-106.621857,31.852854],[-106.625763,31.856276],[-106.627808,31.860593],[-106.616136,31.948439],[-106.614702,31.956],[-106.599096,32.000731],[-106.598639,32.000754],[-106.595333,32.000778],[-106.587972,32.000749],[-106.566056,32.000759],[-106.565142,32.000736],[-106.411075,32.001334],[-106.394298,32.001484],[-106.377174,32.00149],[-106.313307,32.001512],[-106.205915,32.001762],[-106.200699,32.001785],[-106.18184,32.00205],[-106.09976,32.002174],[-105.998003,32.002328],[-105.9006,32.0021],[-105.886159,32.00197],[-105.429281,32.000577],[-105.428582,32.0006],[-105.427049,32.000638],[-105.390396,32.000607],[-105.153994,32.000497],[-105.15031,32.000497],[-105.14824,32.000485],[-105.132916,32.000518],[-105.131377,32.000524],[-105.11804,32.000485],[-105.078605,32.000533],[-105.077046,32.000579],[-104.918272,32.000496],[-104.847757,32.000482],[-104.643526,32.000443],[-104.640918,32.000396],[-104.531937,32.000311],[-104.531756,32.000117],[-104.024521,32.00001],[-103.980179,32.000125],[-103.722853,32.000221],[-103.326501,32.00037],[-103.278521,32.000419],[-103.270383,32.000326],[-103.267708,32.000324],[-103.267633,32.000475],[-103.215641,32.000513],[-103.088698,32.000453],[-103.085876,32.000465],[-103.064423,32.000518],[-103.064344,32.087051],[-103.064348,32.123041],[-103.064422,32.145006],[-103.064696,32.522193],[-103.064761,32.587983],[-103.064788,32.600397],[-103.064761,32.601863],[-103.064815,32.624537],[-103.064633,32.64642],[-103.064864,32.682647],[-103.064798,32.690761],[-103.064799,32.708694],[-103.064827,32.726628],[-103.064807,32.777303],[-103.064698,32.783602],[-103.064711,32.784593],[-103.064699,32.827531],[-103.064672,32.82847],[-103.064889,32.849359],[-103.064916,32.85726],[-103.064807,32.857696],[-103.064862,32.868346],[-103.064701,32.879355],[-103.064569,32.900014],[-103.064657,32.959097],[-103.064679,32.964373],[-103.064625,32.999899],[-103.064452,33.01029],[-103.06398,33.038693],[-103.063905,33.042055],[-103.060103,33.219225],[-103.057856,33.315234],[-103.057487,33.329477],[-103.056655,33.388416],[-103.056655,33.388438],[-103.05261,33.570599],[-103.051664,33.629489],[-103.051363,33.64195],[-103.051535,33.650487],[-103.051087,33.658186],[-103.050532,33.672408],[-103.050148,33.701971],[-103.049096,33.74627],[-103.047346,33.824675],[-103.046907,33.8503],[-103.045644,33.901537],[-103.045698,33.906299],[-103.044893,33.945617],[-103.04395,33.974629],[-103.043617,34.003633],[-103.043531,34.018014],[-103.043555,34.032714],[-103.043746,34.037294],[-103.043771,34.041538],[-103.043721,34.04232],[-103.043767,34.043545],[-103.043744,34.049986],[-103.043686,34.063078],[-103.043516,34.079382],[-103.043569,34.087947],[-103.043644,34.256903],[-103.043719,34.289441],[-103.043936,34.302585],[-103.043979,34.312749],[-103.043979,34.312764],[-103.043946,34.379555],[-103.043944,34.37966],[-103.043919,34.380916],[-103.043693,34.383578],[-103.04363,34.38469],[-103.043614,34.384969],[-103.043613,34.388679],[-103.043613,34.390442],[-103.043585,34.393716],[-103.043611,34.397105],[-103.043583,34.400678],[-103.043538,34.405463],[-103.043582,34.455657],[-103.043588,34.459662],[-103.043589,34.459774],[-103.043594,34.46266],[-103.043072,34.619782],[-103.042827,34.671188],[-103.042769,34.747361],[-103.04277,34.792224],[-103.042781,34.850243],[-103.042521,34.899546],[-103.042521,34.954101],[-103.04252,35.135596],[-103.0426,35.142766],[-103.042711,35.144735],[-103.042568,35.159318],[-103.042395,35.178573],[-103.042339,35.181922],[-103.042366,35.182786],[-103.042377,35.183149],[-103.042377,35.183156],[-103.042497,35.211862],[-103.041554,35.622487],[-103.041357,35.739274],[-103.040824,36.055231],[-103.041674,36.317534],[-103.041745,36.318267],[-103.041669,36.478514],[-103.002434,36.500397],[-102.162463,36.500326],[-102.032339,36.500066],[-101.826565,36.499654],[-101.826498,36.499535],[-101.78811,36.499678],[-101.783359,36.499709],[-101.781987,36.499718],[-101.78061,36.499727],[-101.779435,36.499734],[-101.709314,36.499722],[-101.698685,36.499508],[-101.653708,36.499573],[-101.649966,36.499573],[-101.623915,36.499528],[-101.085156,36.499244],[-101.052418,36.499563],[-101.045331,36.49954],[-100.977088,36.499595],[-100.954153,36.499599],[-100.936058,36.499602],[-100.918513,36.499621],[-100.884174,36.499682],[-100.88408,36.499682],[-100.859657,36.499687],[-100.85084,36.4997],[-100.824236,36.499618],[-100.824218,36.499618],[-100.80619,36.499674],[-100.806172,36.499634],[-100.802909,36.499621],[-100.802886,36.499621],[-100.761811,36.499618],[-100.761811,36.49958],[-100.724362,36.49958],[-100.724361,36.499558],[-100.708626,36.499553],[-100.708628,36.499521],[-100.657763,36.499483],[-100.657763,36.4995],[-100.648343,36.499495],[-100.648344,36.499463],[-100.592614,36.499469],[-100.592556,36.499469],[-100.592551,36.499429],[-100.583539,36.499483],[-100.583379,36.499443],[-100.578114,36.499463],[-100.578114,36.499439],[-100.546145,36.499343],[-100.531215,36.499341],[-100.531215,36.49929],[-100.530478,36.49924],[-100.530314,36.499357],[-100.522227,36.499291],[-100.441065,36.49949],[-100.441064,36.499462],[-100.433959,36.499456],[-100.421328,36.499447],[-100.421301,36.499488],[-100.413634,36.499444],[-100.41355,36.499469],[-100.378634,36.499517],[-100.378592,36.499445],[-100.351852,36.499487],[-100.351842,36.499473],[-100.334464,36.49942],[-100.334441,36.49944],[-100.32415,36.499679],[-100.311245,36.499631],[-100.311018,36.499688],[-100.310643,36.499642],[-100.181221,36.499633],[-100.090021,36.499634],[-100.003762,36.499699],[-100.000406,36.499702],[-100.000399,36.055677],[-100.000396,35.880948],[-100.000392,35.619115],[-100.000389,35.422364],[-100.000385,35.182702],[-100.000384,35.030385],[-100.000381,34.746461]]]],"type":"MultiPolygon"}}]}